{'_content': b'{\n  "version": 0.6,\n  "generator": "Overpass API 0.7.62.5 1bd436f1",\n  "osm3s": {\n    "timestamp_osm_base": "2025-06-02T07:23:29Z",\n    "timestamp_areas_base": "2025-05-25T01:55:35Z",\n    "copyright": "The data included in this document is from www.openstreetmap.org. The data is made available under ODbL."\n  },\n  "elements": [\n\n{\n  "type": "node",\n  "id": 31154293,\n  "lat": 51.4264694,\n  "lon": 7.1448384,\n  "tags": {\n    "addr:city": "Bochum",\n    "addr:country": "DE",\n    "addr:housenumber": "116-120",\n    "addr:postcode": "44879",\n    "addr:street": "Dr.-C.-Otto-Stra\xc3\x9fe",\n    "addr:suburb": "Dahlhausen",\n    "brand": "REWE",\n    "brand:wikidata": "Q16968817",\n    "brand:wikipedia": "de:Rewe",\n    "check_date": "2023-07-12",\n    "contact:phone": "+49 234 9412095",\n    "contact:website": "https://www.rewe.de/marktseite/bochum/2161888/rewe-markt-dr-c-otto-str-116-120/",\n    "name": "REWE",\n    "opening_hours": "Mo-Fr 07:00-19:00; Sa 07:00-18:00; Su,PH off",\n    "payment:cash": "yes",\n    "payment:girocard": "yes",\n    "shop": "supermarket",\n    "wheelchair": "yes"\n  }\n},\n{\n  "type": "node",\n  "id": 264116511,\n  "lat": 51.4744502,\n  "lon": 7.2097131,\n  "tags": {\n    "addr:city": "Bochum",\n    "addr:country": "DE",\n    "addr:housenumber": "85",\n    "addr:postcode": "44793",\n    "addr:street": "Bessemerstra\xc3\x9fe",\n    "atm": "no",\n    "brand": "ALDI Nord",\n    "brand:wikidata": "Q41171373",\n    "brand:wikipedia": "hu:Aldi Nord",\n    "delivery": "no",\n    "internet_access": "no",\n    "name": "Aldi",\n    "opening_hours": "Mo-Sa 07:00-21:00",\n    "shop": "supermarket",\n    "wheelchair": "yes"\n  }\n},\n{\n  "type": "node",\n  "id": 264379765,\n  "lat": 51.4816678,\n  "lon": 7.2092085,\n  "tags": {\n    "addr:city": "Bochum",\n    "addr:country": "DE",\n    "addr:housenumber": "38-40",\n    "addr:postcode": "44793",\n    "addr:street": "Alleestra\xc3\x9fe",\n    "branch": "Burkowski",\n    "brand": "EDEKA",\n    "brand:wikidata": "Q701755",\n    "brand:wikipedia": "de:Edeka",\n    "check_date": "2024-11-27",\n    "name": "EDEKA Frischecenter Burkowski",\n    "opening_hours": "Mo-Sa 07:00-21:00; PH off",\n    "shop": "supermarket"\n  }\n},\n{\n  "type": "node",\n  "id": 277955115,\n  "lat": 51.4650723,\n  "lon": 7.1496211,\n  "tags": {\n    "addr:city": "Bochum",\n    "addr:country": "DE",\n    "addr:housenumber": "202",\n    "addr:postcode": "44867",\n    "addr:street": "Westenfelder Stra\xc3\x9fe",\n    "contact:email": "rewe-mokanski-5913@web.de",\n    "contact:website": "http://www.rewe-mokanski.de/cms/website.php?id=/de/index/maerkte/westenfelderstrasse.htm",\n    "name": "REWE Mokanski",\n    "opening_hours": "Mo-Sa 06:00-24:00; Su,PH off",\n    "payment:cash": "yes",\n    "payment:cryptocurrencies": "no",\n    "payment:electronic_purses": "no",\n    "payment:girocard": "yes",\n    "shop": "supermarket",\n    "wheelchair": "yes"\n  }\n},\n{\n  "type": "node",\n  "id": 312796048,\n  "lat": 51.4505286,\n  "lon": 7.2310531,\n  "tags": {\n    "addr:city": "Bochum",\n    "addr:country": "DE",\n    "addr:housenumber": "59",\n    "addr:postcode": "44799",\n    "addr:street": "Brenscheder Stra\xc3\x9fe",\n    "addr:suburb": "Wiemelhausen",\n    "brand": "Edeka",\n    "brand:wikidata": "Q701755",\n    "brand:wikipedia": "de:Edeka",\n    "contact:website": "https://www.edeka.de/",\n    "name": "EDEKA",\n    "opening_hours": "Mo-Sa 07:00-20:00; Su, PH off",\n    "payment:cash": "yes",\n    "payment:cryptocurrencies": "no",\n    "payment:electronic_purses": "no",\n    "payment:girocard": "yes",\n    "shop": "supermarket",\n    "wheelchair": "yes"\n  }\n},\n{\n  "type": "node",\n  "id": 312796052,\n  "lat": 51.4517060,\n  "lon": 7.2314106,\n  "tags": {\n    "addr:city": "Bochum",\n    "addr:country": "DE",\n    "addr:housenumber": "56a",\n    "addr:postcode": "44799",\n    "addr:street": "Brenscheder Stra\xc3\x9fe",\n    "addr:suburb": "Wiemelhausen",\n    "brand": "Rewe",\n    "brand:wikidata": "Q16968817",\n    "brand:wikipedia": "en:REWE",\n    "changing_table": "no",\n    "check_date": "2025-05-07",\n    "check_date:opening_hours": "2025-04-25",\n    "currency:EUR": "yes",\n    "level": "0",\n    "name": "Rewe",\n    "opening_hours": "Mo-Sa 07:00-22:00",\n    "organic": "yes",\n    "payment:cash": "yes",\n    "payment:girocard": "yes",\n    "second_hand": "no",\n    "shop": "supermarket",\n    "stroller": "yes",\n    "toilets": "no",\n    "toilets:menstrual_products": "no",\n    "toilets:wheelchair": "no",\n    "website": "https://www.rewe.de/marktseite/bochum-wiemelhausen/1940238/rewe-markt-brenscheder-str-56a",\n    "wheelchair": "yes"\n  }\n},\n{\n  "type": "node",\n  "id": 365237387,\n  "lat": 51.4909376,\n  "lon": 7.2432567,\n  "tags": {\n    "addr:city": "Bochum",\n    "addr:country": "DE",\n    "addr:housenumber": "206",\n    "addr:postcode": "44791",\n    "addr:street": "Castroper Stra\xc3\x9fe",\n    "brand": "Aldi Nord",\n    "brand:wikidata": "Q41171373",\n    "brand:wikipedia": "hu:Aldi Nord",\n    "name": "Aldi",\n    "opening_hours": "Mo-Sa 07:00-21:00; Su, PH off",\n    "operator": "Aldi",\n    "payment:cash": "yes",\n    "payment:cryptocurrencies": "no",\n    "payment:electronic_purses": "no",\n    "payment:girocard": "yes",\n    "phone": "+49 800 7234870",\n    "shop": "supermarket",\n    "website": "https://www.aldi-nord.de/",\n    "wheelchair": "yes"\n  }\n},\n{\n  "type": "node",\n  "id": 378750116,\n  "lat": 51.4902824,\n  "lon": 7.2077996,\n  "tags": {\n    "addr:city": "Bochum",\n    "addr:country": "DE",\n    "addr:housenumber": "8",\n    "addr:postcode": "44791",\n    "addr:street": "Zechenstra\xc3\x9fe",\n    "brand": "EDEKA",\n    "brand:wikidata": "Q701755",\n    "brand:wikipedia": "de:Edeka",\n    "contact:email": "info@edeka-mehr.de",\n    "contact:phone": "+49 234 9586864",\n    "diet:halal": "yes",\n    "name": "Edeka Mehr",\n    "opening_hours": "Mo-Sa 07:30-21:00; PH off",\n    "shop": "supermarket",\n    "wheelchair": "yes"\n  }\n},\n{\n  "type": "node",\n  "id": 426583210,\n  "lat": 51.5061205,\n  "lon": 7.1942401,\n  "tags": {\n    "addr:city": "Bochum",\n    "addr:country": "DE",\n    "addr:housenumber": "13",\n    "addr:postcode": "44809",\n    "addr:street": "Riemker Stra\xc3\x9fe",\n    "brand": "ALDI Nord",\n    "brand:wikidata": "Q41171373",\n    "brand:wikipedia": "en:Aldi",\n    "name": "ALDI Nord",\n    "opening_hours": "Mo-Sa 08:00-20:00",\n    "shop": "supermarket",\n    "website": "https://www.aldi-nord.de/tools/filialen-und-oeffnungszeiten/nordrhein-westfalen/bochum/riemker-str-13.html"\n  }\n},\n{\n  "type": "node",\n  "id": 459527928,\n  "lat": 51.4720259,\n  "lon": 7.2507558,\n  "tags": {\n    "addr:city": "Bochum",\n    "addr:country": "DE",\n    "addr:housenumber": "248",\n    "addr:postcode": "44803",\n    "addr:street": "Wittener Stra\xc3\x9fe",\n    "brand": "REWE",\n    "brand:wikidata": "Q16968817",\n    "check_date:opening_hours": "2023-08-27",\n    "fax": "+49 234 351547",\n    "name": "REWE Lenk",\n    "opening_hours": "Mo-Sa 07:00-20:00",\n    "operator": "Thomas Lenk Eh OHG",\n    "phone": "+49 234 358774",\n    "shop": "supermarket",\n    "website": "https://www.rewe-dortmund.de",\n    "wheelchair": "yes"\n  }\n},\n{\n  "type": "node",\n  "id": 482849589,\n  "lat": 51.4729973,\n  "lon": 7.2220409,\n  "tags": {\n    "brand": "REWE",\n    "brand:wikidata": "Q16968817",\n    "brand:wikipedia": "de:Rewe",\n    "check_date:opening_hours": "2023-06-05",\n    "name": "REWE",\n    "opening_hours": "Mo-Sa 07:00-20:00",\n    "shop": "supermarket",\n    "wheelchair": "yes"\n  }\n},\n{\n  "type": "node",\n  "id": 484688725,\n  "lat": 51.4922410,\n  "lon": 7.2126632,\n  "tags": {\n    "addr:city": "Bochum",\n    "addr:country": "DE",\n    "addr:housenumber": "109a",\n    "addr:postcode": "44809",\n    "addr:street": "Herner Stra\xc3\x9fe",\n    "brand": "PENNY",\n    "brand:wikidata": "Q284688",\n    "brand:wikipedia": "en:Penny (supermarket)",\n    "check_date:opening_hours": "2024-08-04",\n    "name": "PENNY",\n    "opening_hours": "Mo-Sa 07:00-22:00",\n    "payment:cards": "yes",\n    "payment:cash": "yes",\n    "payment:credit_cards": "yes",\n    "payment:maestro": "yes",\n    "phone": "+4922120199959",\n    "shop": "supermarket",\n    "website": "https://www.penny.de/markt/bochum/1930432/penny-bergbau-museum-herner-strasse-107-109b",\n    "wheelchair": "yes"\n  }\n},\n{\n  "type": "node",\n  "id": 496385975,\n  "lat": 51.4925565,\n  "lon": 7.2514619,\n  "tags": {\n    "addr:city": "Bochum",\n    "addr:country": "DE",\n    "addr:housenumber": "270",\n    "addr:postcode": "44791",\n    "addr:street": "Castroper Stra\xc3\x9fe",\n    "brand": "Penny",\n    "brand:wikidata": "Q284688",\n    "brand:wikipedia": "en:Penny (supermarket)",\n    "loc_name": "Penny Castroper Stra\xc3\x9fe",\n    "name": "Penny Markt",\n    "opening_hours": "Mo-Sa 07:00-22:00; PH off",\n    "shop": "supermarket",\n    "toilets:wheelchair": "no",\n    "wheelchair": "yes"\n  }\n},\n{\n  "type": "node",\n  "id": 598602801,\n  "lat": 51.4279257,\n  "lon": 7.2418931,\n  "tags": {\n    "addr:city": "Bochum",\n    "addr:country": "DE",\n    "addr:housenumber": "304",\n    "addr:postcode": "44797",\n    "addr:street": "Kemnader Stra\xc3\x9fe",\n    "addr:suburb": "Stiepel",\n    "brand": "REWE",\n    "brand:wikidata": "Q16968817",\n    "brand:wikipedia": "en:REWE",\n    "check_date": "2025-05-07",\n    "contact:phone": "+49 234 8902980",\n    "contact:website": "https://www.rewe.de/marktseite/bochum/2161068/rewe-markt-kemnader-strasse-304/",\n    "name": "Rewe",\n    "opening_hours": "Mo-Sa 07:00-21:00; Su, PH off",\n    "payment:cash": "yes",\n    "payment:cryptocurrencies": "no",\n    "payment:electronic_purses": "no",\n    "payment:girocard": "yes",\n    "shop": "supermarket",\n    "wheelchair": "yes"\n  }\n},\n{\n  "type": "node",\n  "id": 605351944,\n  "lat": 51.4637514,\n  "lon": 7.2374561,\n  "tags": {\n    "addr:city": "Bochum",\n    "addr:country": "DE",\n    "addr:housenumber": "105a",\n    "addr:postcode": "44803",\n    "addr:street": "Wasserstra\xc3\x9fe",\n    "brand": "EDEKA",\n    "brand:wikidata": "Q701755",\n    "brand:wikipedia": "de:Edeka",\n    "check_date:opening_hours": "2024-03-07",\n    "name": "EDEKA",\n    "opening_hours": "Mo-Sa 07:00-21:00; PH off",\n    "shop": "supermarket",\n    "wheelchair": "yes"\n  }\n},\n{\n  "type": "node",\n  "id": 663387514,\n  "lat": 51.4479402,\n  "lon": 7.2564199,\n  "tags": {\n    "addr:city": "Bochum",\n    "addr:country": "DE",\n    "addr:housenumber": "105",\n    "addr:postcode": "44801",\n    "addr:street": "Querenburger H\xc3\xb6he",\n    "brand": "Netto Marken-Discount",\n    "brand:wikidata": "Q879858",\n    "brand:wikipedia": "de:Netto Marken-Discount",\n    "contact:website": "https://www.netto-online.de/filialen/Bochum/Querenburger-Hoehe-101-280/2594/",\n    "layer": "1",\n    "level": "1",\n    "name": "Netto Marken-Discount",\n    "opening_hours": "Mo-Sa 07:00-22:00",\n    "operator": "Netto Marken-Discount AG & Co. KG",\n    "shop": "supermarket",\n    "toilets:wheelchair": "no",\n    "wheelchair": "yes",\n    "wheelchair:description": "keine Stufen"\n  }\n},\n{\n  "type": "node",\n  "id": 663730945,\n  "lat": 51.4551443,\n  "lon": 7.2563075,\n  "tags": {\n    "addr:city": "Bochum",\n    "addr:country": "DE",\n    "addr:housenumber": "20",\n    "addr:postcode": "44801",\n    "addr:street": "Semperstra\xc3\x9fe",\n    "check_date": "2025-01-21",\n    "contact:email": "bochum@kauver.de",\n    "contact:fax": "+49 234 7941765",\n    "contact:phone": "+49 234 7941764",\n    "contact:website": "https://kauver.de/maerkte/kauver-bochum",\n    "name": "Kauver",\n    "opening_hours": "Mo-Sa 8:30-19:00; PH off",\n    "operator": "Valentina Weiland",\n    "shop": "supermarket"\n  }\n},\n{\n  "type": "node",\n  "id": 663875463,\n  "lat": 51.4558429,\n  "lon": 7.2506037,\n  "tags": {\n    "addr:city": "Bochum",\n    "addr:country": "DE",\n    "addr:housenumber": "116",\n    "addr:postcode": "44803",\n    "addr:street": "Markstra\xc3\x9fe",\n    "name": "Sahin",\n    "opening_hours": "Mo-Fr 08:00-20:00; Sa 08:00-18:00",\n    "shop": "supermarket",\n    "wheelchair": "yes"\n  }\n},\n{\n  "type": "node",\n  "id": 663976238,\n  "lat": 51.4485454,\n  "lon": 7.2581101,\n  "tags": {\n    "addr:city": "Bochum",\n    "addr:country": "DE",\n    "addr:housenumber": "139",\n    "addr:postcode": "44801",\n    "addr:street": "Querenburger H\xc3\xb6he",\n    "brand": "Reformhaus Bacher",\n    "brand:wikidata": "Q19816424",\n    "brand:wikipedia": "de:Reformhaus Bacher",\n    "layer": "1",\n    "level": "1",\n    "name": "Reformhaus Bacher",\n    "opening_hours": "Mo-Sa 09:00-18:00",\n    "shop": "supermarket",\n    "wheelchair": "yes"\n  }\n},\n{\n  "type": "node",\n  "id": 666787168,\n  "lat": 51.5075080,\n  "lon": 7.1930515,\n  "tags": {\n    "brand": "Globus",\n    "brand:wikidata": "Q457503",\n    "diet:halal": "yes",\n    "diet:kosher": "no",\n    "email": "info-mhrie@globus.de",\n    "name": "Globus",\n    "opening_hours": "Mo-Sa 08:00-20:00; PH off",\n    "phone": "+49 234 955420",\n    "shop": "supermarket",\n    "website": "https://www.globus.de/bochum-riemke/index.php",\n    "wheelchair": "yes"\n  }\n},\n{\n  "type": "node",\n  "id": 666789548,\n  "lat": 51.5081349,\n  "lon": 7.1886236,\n  "tags": {\n    "addr:city": "Bochum",\n    "addr:housenumber": "425",\n    "addr:postcode": "44809",\n    "addr:street": "Dorstener Stra\xc3\x9fe",\n    "brand": "Netto Marken-Discount",\n    "brand:wikidata": "Q879858",\n    "brand:wikipedia": "de:Netto Marken-Discount",\n    "name": "Netto Marken-Discount",\n    "opening_hours": "Mo-Fr 07:00-21:00; Sa 07:00-21:00",\n    "shop": "supermarket",\n    "website": "https://www.netto-online.de/filialen/bochum/dorstenerstr-425/6015",\n    "wheelchair": "yes"\n  }\n},\n{\n  "type": "node",\n  "id": 675070523,\n  "lat": 51.4808928,\n  "lon": 7.2113938,\n  "tags": {\n    "addr:city": "Bochum",\n    "addr:country": "DE",\n    "addr:housenumber": "27",\n    "addr:postcode": "44793",\n    "addr:street": "Alleestra\xc3\x9fe",\n    "check_date:opening_hours": "2024-05-16",\n    "contact:facebook": "https://www.facebook.com/CappadociaFrischeCenter/",\n    "contact:phone": "+49 234 9020847",\n    "name": "Cappadocia",\n    "opening_hours": "Mo-Fr 08:00-20:00, Sa 08:00-18:00",\n    "payment:cash": "yes",\n    "payment:credit_cards": "yes",\n    "payment:debit_cards": "yes",\n    "shop": "supermarket",\n    "wheelchair": "yes"\n  }\n},\n{\n  "type": "node",\n  "id": 747803321,\n  "lat": 51.4402912,\n  "lon": 7.2116587,\n  "tags": {\n    "addr:city": "Bochum",\n    "addr:country": "DE",\n    "addr:housenumber": "116",\n    "addr:postcode": "44795",\n    "addr:street": "Karl-Friedrich-Stra\xc3\x9fe",\n    "brand": "REWE",\n    "brand:wikidata": "Q16968817",\n    "brand:wikipedia": "en:REWE",\n    "internet_access": "wlan",\n    "name": "Rewe",\n    "opening_hours": "Mo-Sa 07:00-22:00; Su, PH off",\n    "operator": "REWE Markt GmbH",\n    "payment:cash": "yes",\n    "payment:cryptocurrencies": "no",\n    "payment:electronic_purses": "no",\n    "payment:girocard": "yes",\n    "phone": "+49 234 9471837",\n    "shop": "supermarket",\n    "toilets:wheelchair": "no",\n    "wheelchair": "yes"\n  }\n},\n{\n  "type": "node",\n  "id": 813079395,\n  "lat": 51.4939241,\n  "lon": 7.1907728,\n  "tags": {\n    "brand": "Netto Marken-Discount",\n    "brand:wikidata": "Q879858",\n    "brand:wikipedia": "de:Netto Marken-Discount",\n    "check_date:opening_hours": "2024-04-14",\n    "diet:halal": "yes",\n    "name": "Netto Marken-Discount",\n    "opening_hours": "Mo-Sa 07:00-21:30",\n    "shop": "supermarket",\n    "website": "https://www.netto-online.de/filialen/Bochum/Dorstener-Str-221/6323/",\n    "wheelchair": "yes"\n  }\n},\n{\n  "type": "node",\n  "id": 822054652,\n  "lat": 51.4823233,\n  "lon": 7.1306649,\n  "tags": {\n    "addr:city": "Bochum",\n    "addr:country": "DE",\n    "addr:housenumber": "1",\n    "addr:postcode": "44866",\n    "addr:street": "Alter Markt",\n    "addr:suburb": "Wattenscheid",\n    "brand": "Kaufland",\n    "brand:wikidata": "Q685967",\n    "brand:wikipedia": "en:Kaufland",\n    "level": "-1",\n    "name": "Kaufland",\n    "shop": "supermarket",\n    "toilets:wheelchair": "yes",\n    "wheelchair": "yes",\n    "wheelchair:description": "Behinderten-WC bei den Kassen vom Kaufland"\n  }\n},\n{\n  "type": "node",\n  "id": 928470843,\n  "lat": 51.4405560,\n  "lon": 7.2114719,\n  "tags": {\n    "addr:city": "Bochum",\n    "addr:country": "DE",\n    "addr:housenumber": "123",\n    "addr:postcode": "44795",\n    "addr:street": "Karl-Friedrich-Stra\xc3\x9fe",\n    "check_date:opening_hours": "2022-11-24",\n    "fax": "+49 234 49708636",\n    "name": "Pro-Biomarkt",\n    "opening_hours": "Mo-Fr 08:00-19:00; Sa 08:00-16:00",\n    "organic": "only",\n    "payment:cash": "yes",\n    "payment:cryptocurrencies": "no",\n    "payment:electronic_purses": "no",\n    "payment:girocard": "yes",\n    "phone": "+49 234 49708635",\n    "shop": "supermarket",\n    "website": "https://www.pro-biomarkt.de/"\n  }\n},\n{\n  "type": "node",\n  "id": 1032814754,\n  "lat": 51.4747497,\n  "lon": 7.2384019,\n  "tags": {\n    "addr:city": "Bochum",\n    "addr:country": "DE",\n    "addr:housenumber": "129-133",\n    "addr:postcode": "44803",\n    "addr:street": "Wittener Stra\xc3\x9fe",\n    "brand": "REWE",\n    "brand:wikidata": "Q16968817",\n    "brand:wikipedia": "de:Rewe",\n    "check_date": "2024-11-06",\n    "check_date:opening_hours": "2024-11-06",\n    "name": "REWE",\n    "opening_hours": "Mo-Sa 07:00-20:00; PH off",\n    "operator": "REWE Lenk",\n    "shop": "supermarket",\n    "website": "https://www.rewe-lenk.de/",\n    "wheelchair": "yes"\n  }\n},\n{\n  "type": "node",\n  "id": 1035673665,\n  "lat": 51.4757839,\n  "lon": 7.2351305,\n  "tags": {\n    "addr:city": "Bochum",\n    "addr:country": "DE",\n    "addr:housenumber": "109",\n    "addr:postcode": "44803",\n    "addr:street": "Wittener Stra\xc3\x9fe",\n    "brand": "Netto Marken-Discount",\n    "brand:wikidata": "Q879858",\n    "brand:wikipedia": "de:Netto Marken-Discount",\n    "check_date:opening_hours": "2025-02-01",\n    "name": "Netto Marken-Discount",\n    "opening_hours": "Mo-Sa 07:00-22:00; PH off",\n    "shop": "supermarket",\n    "website": "https://www.netto-online.de/filialen/Bochum/Wittener-Str-109/6317/",\n    "wheelchair": "yes"\n  }\n},\n{\n  "type": "node",\n  "id": 1053440627,\n  "lat": 51.4787946,\n  "lon": 7.2175404,\n  "tags": {\n    "entrance": "yes",\n    "name": "Omari Markt",\n    "shop": "supermarket"\n  }\n},\n{\n  "type": "node",\n  "id": 1157598739,\n  "lat": 51.4988970,\n  "lon": 7.2225987,\n  "tags": {\n    "addr:city": "Bochum",\n    "addr:country": "DE",\n    "addr:housenumber": "110",\n    "addr:postcode": "44807",\n    "addr:street": "Vierhausstra\xc3\x9fe",\n    "brand": "Lidl",\n    "brand:wikidata": "Q151954",\n    "brand:wikipedia": "en:Lidl",\n    "check_date:opening_hours": "2024-01-27",\n    "name": "Lidl",\n    "opening_hours": "Mo-Sa 07:00-21:00",\n    "operator": "Lidl",\n    "shop": "supermarket",\n    "website": "https://www.lidl.de/filialen/bochum/grumme-vierhausstr-110.html",\n    "wheelchair": "yes"\n  }\n},\n{\n  "type": "node",\n  "id": 1179438660,\n  "lat": 51.4708775,\n  "lon": 7.2169954,\n  "tags": {\n    "addr:city": "Bochum",\n    "addr:country": "DE",\n    "addr:housenumber": "30",\n    "addr:postcode": "44789",\n    "addr:street": "K\xc3\xb6nigsallee",\n    "brand": "Rewe",\n    "brand:wikidata": "Q16968817",\n    "brand:wikipedia": "en:REWE",\n    "check_date:opening_hours": "2024-01-22",\n    "level": "0",\n    "name": "REWE City",\n    "opening_hours": "Mo-Sa 07:00-24:00",\n    "organic": "yes",\n    "payment:cards": "yes",\n    "payment:cash": "yes",\n    "phone": "+49 234 930910",\n    "self_checkout": "yes",\n    "shop": "supermarket",\n    "wheelchair": "yes"\n  }\n},\n{\n  "type": "node",\n  "id": 1330680706,\n  "lat": 51.5103443,\n  "lon": 7.2106018,\n  "tags": {\n    "addr:city": "Bochum",\n    "addr:housenumber": "371",\n    "addr:postcode": "44807",\n    "addr:street": "Herner Stra\xc3\x9fe",\n    "name": "Alzain Market",\n    "opening_hours": "Mo-Fr 08:00-20:00, Sa 09:00-18:00",\n    "shop": "supermarket"\n  }\n},\n{\n  "type": "node",\n  "id": 1520284483,\n  "lat": 51.4824028,\n  "lon": 7.2179662,\n  "tags": {\n    "addr:city": "Bochum",\n    "addr:country": "DE",\n    "addr:housenumber": "100",\n    "addr:postcode": "44787",\n    "addr:street": "Kortumstra\xc3\x9fe",\n    "brand": "Rewe",\n    "brand:wikidata": "Q16968817",\n    "brand:wikipedia": "de:Rewe",\n    "level": "1",\n    "name": "REWE",\n    "opening_hours": "Mo-Sa 08:00-20:00",\n    "organic": "yes",\n    "payment:cash": "yes",\n    "payment:girocard": "yes",\n    "phone": "+49 234 9650986",\n    "self_checkout": "yes",\n    "shop": "supermarket",\n    "website": "https://www.rewe.de/marktseite/bochum/1940239/rewe-markt-kortumstrasse-100/",\n    "wheelchair": "yes"\n  }\n},\n{\n  "type": "node",\n  "id": 1565008299,\n  "lat": 51.4277324,\n  "lon": 7.1635994,\n  "tags": {\n    "addr:city": "Bochum",\n    "addr:country": "DE",\n    "addr:housenumber": "807",\n    "addr:postcode": "44879",\n    "addr:street": "Hattinger Stra\xc3\x9fe",\n    "addr:suburb": "Linden",\n    "brand": "REWE",\n    "brand:wikidata": "Q16968817",\n    "brand:wikipedia": "de:Rewe",\n    "check_date": "2023-07-02",\n    "name": "REWE",\n    "opening_hours": "Mo-Sa 07:00-22:00",\n    "payment:cash": "yes",\n    "payment:cryptocurrencies": "no",\n    "payment:girocard": "yes",\n    "phone": "+49 234 490500",\n    "shop": "supermarket",\n    "surveillance": "indoor",\n    "website": "https://www.rewe.de/marktseite/rewe-markt-bochum-hattinger-str.-807/",\n    "wheelchair": "yes"\n  }\n},\n{\n  "type": "node",\n  "id": 1625654536,\n  "lat": 51.4971536,\n  "lon": 7.2579941,\n  "tags": {\n    "addr:city": "Bochum",\n    "addr:country": "DE",\n    "addr:housenumber": "20",\n    "addr:postcode": "44805",\n    "addr:street": "Castroper Hellweg",\n    "name": "REWE Ihr Kaufpark",\n    "opening_hours": "Mo-Fr 07:00-24:00; Sa 07:00-22:00",\n    "payment:cash": "yes",\n    "payment:girocard": "yes",\n    "phone": "+49 234 9505490",\n    "shop": "supermarket",\n    "toilets:wheelchair": "no",\n    "website": "https://www.rewe.de/marktseite/bochum/2161365/rewe-markt-castroper-hellweg-20/",\n    "wheelchair": "yes",\n    "wheelchair:description": "Drei Behinderten-Parkpl\xc3\xa4tze und extra Einkaufswagen f\xc3\xbcr Rollstuhlfahrer."\n  }\n},\n{\n  "type": "node",\n  "id": 1668556879,\n  "lat": 51.4727176,\n  "lon": 7.3230933,\n  "tags": {\n    "name": "Maria Market",\n    "opening_hours": "Mo-Sa 08:00-20:00",\n    "shop": "supermarket"\n  }\n},\n{\n  "type": "node",\n  "id": 1672199065,\n  "lat": 51.4911288,\n  "lon": 7.2438408,\n  "tags": {\n    "addr:city": "Bochum",\n    "addr:country": "DE",\n    "addr:housenumber": "202-210",\n    "addr:postcode": "44791",\n    "addr:street": "Castroper Stra\xc3\x9fe",\n    "brand": "Edeka",\n    "brand:wikidata": "Q701755",\n    "brand:wikipedia": "de:Edeka",\n    "contact:phone": "+49 234 51684967",\n    "name": "EDEKA",\n    "opening_hours": "Mo-Sa 07:00-21:00; Su, PH off",\n    "operator": "Edeka Driller",\n    "payment:cash": "yes",\n    "payment:cryptocurrencies": "no",\n    "payment:electronic_purses": "no",\n    "payment:girocard": "yes",\n    "shop": "supermarket",\n    "toilets:wheelchair": "no",\n    "website": "https://www.edeka-driller.de/",\n    "wheelchair": "yes"\n  }\n},\n{\n  "type": "node",\n  "id": 1911959808,\n  "lat": 51.4268000,\n  "lon": 7.1418772,\n  "tags": {\n    "addr:city": "Bochum",\n    "addr:country": "DE",\n    "addr:housenumber": "141",\n    "addr:postcode": "44879",\n    "addr:street": "Dr.-C.-Otto-Stra\xc3\x9fe",\n    "addr:suburb": "Dahlhausen",\n    "brand": "Lidl",\n    "brand:wikidata": "Q151954",\n    "brand:wikipedia": "en:Lidl",\n    "check_date:opening_hours": "2024-05-11",\n    "name": "Lidl",\n    "opening_hours": "Mo-Sa 07:00-21:00",\n    "payment:cash": "yes",\n    "payment:girocard": "yes",\n    "shop": "supermarket",\n    "wheelchair": "yes"\n  }\n},\n{\n  "type": "node",\n  "id": 1948850261,\n  "lat": 51.4917750,\n  "lon": 7.3050259,\n  "tags": {\n    "addr:city": "Bochum",\n    "addr:housenumber": "25",\n    "addr:postcode": "44894",\n    "addr:street": "N\xc3\xb6renbergstra\xc3\x9fe",\n    "brand": "Rewe",\n    "brand:wikidata": "Q16968817",\n    "brand:wikipedia": "en:REWE",\n    "check_date:opening_hours": "2022-11-29",\n    "contact:phone": "+49 234 262877",\n    "name": "Rewe",\n    "opening_hours": "Mo-Sa 07:30-22:00",\n    "operator": "REWE MERT EH-oHG",\n    "shop": "supermarket",\n    "website": "https://www.rewe.de/",\n    "wheelchair": "limited"\n  }\n},\n{\n  "type": "node",\n  "id": 2082552816,\n  "lat": 51.4290116,\n  "lon": 7.1656731,\n  "tags": {\n    "addr:city": "Bochum",\n    "addr:country": "DE",\n    "addr:housenumber": "777",\n    "addr:postcode": "44879",\n    "addr:street": "Hattinger Stra\xc3\x9fe",\n    "addr:suburb": "Linden",\n    "brand": "Netto Marken-Discount",\n    "brand:wikidata": "Q879858",\n    "brand:wikipedia": "de:Netto Marken-Discount",\n    "check_date:opening_hours": "2023-02-24",\n    "dog": "no",\n    "name": "Netto Marken-Discount",\n    "opening_hours": "Mo-Sa 07:00-21:00",\n    "payment:american_express": "yes",\n    "payment:app": "yes",\n    "payment:apple_pay": "yes",\n    "payment:cash": "yes",\n    "payment:cryptocurrencies": "no",\n    "payment:diners_club": "yes",\n    "payment:discover_card": "yes",\n    "payment:girocard": "yes",\n    "payment:google_pay": "yes",\n    "payment:maestro": "yes",\n    "payment:mastercard": "yes",\n    "payment:visa": "yes",\n    "payment:vpay": "yes",\n    "shop": "supermarket",\n    "smoking": "no",\n    "surveillance": "indoor",\n    "website": "https://www.netto-online.de/filialen/Bochum/Hattinger-Str-777/6119/",\n    "wheelchair": "yes"\n  }\n},\n{\n  "type": "node",\n  "id": 2212829126,\n  "lat": 51.4482004,\n  "lon": 7.2579239,\n  "tags": {\n    "addr:city": "Bochum",\n    "addr:country": "DE",\n    "addr:housenumber": "208a",\n    "addr:postcode": "44801",\n    "addr:street": "Querenburger H\xc3\xb6he",\n    "brand": "Rewe",\n    "brand:wikidata": "Q16968817",\n    "brand:wikipedia": "en:REWE",\n    "designation": "Supermarket",\n    "level": "1",\n    "name": "Rewe",\n    "opening_hours": "Mo-Fr 07:00-24:00; Sa 07:00-22:00",\n    "payment:contactless": "yes",\n    "payment:girocard": "yes",\n    "shop": "supermarket",\n    "toilets:wheelchair": "no",\n    "wheelchair": "yes"\n  }\n},\n{\n  "type": "node",\n  "id": 3098996318,\n  "lat": 51.4550969,\n  "lon": 7.2687643,\n  "tags": {\n    "addr:city": "Bochum",\n    "addr:housenumber": "3a",\n    "addr:postcode": "44801",\n    "addr:street": "Auf dem Backenberg",\n    "name": "Hustadt Markt",\n    "phone": "+49 234 3255737",\n    "shop": "supermarket"\n  }\n},\n{\n  "type": "node",\n  "id": 3322005499,\n  "lat": 51.4952788,\n  "lon": 7.2779972,\n  "tags": {\n    "addr:city": "Bochum",\n    "addr:housenumber": "24",\n    "addr:postcode": "44791",\n    "addr:street": "Am Einkaufszentrum",\n    "brand": "Lidl",\n    "brand:wikidata": "Q151954",\n    "brand:wikipedia": "en:Lidl",\n    "level": "0",\n    "name": "Lidl",\n    "opening_hours": "Mo-Sa 09:00-21:00; Fr 09:00-21:30",\n    "payment:cash": "yes",\n    "payment:contactless": "yes",\n    "payment:girocard": "yes",\n    "payment:maestro": "yes",\n    "payment:mastercard": "yes",\n    "payment:visa": "yes",\n    "phone": "+49 800 4353361",\n    "shop": "supermarket",\n    "toilets:wheelchair": "no",\n    "website": "https://www.lidl.de/",\n    "wheelchair": "yes"\n  }\n},\n{\n  "type": "node",\n  "id": 4553615435,\n  "lat": 51.5002424,\n  "lon": 7.2800871,\n  "tags": {\n    "addr:city": "Bochum",\n    "addr:housenumber": "109",\n    "addr:postcode": "44805",\n    "addr:street": "Harpener Hellweg",\n    "brand": "Penny",\n    "brand:wikidata": "Q284688",\n    "brand:wikipedia": "en:Penny (supermarket)",\n    "name": "Penny",\n    "opening_hours": "Mo-Sa 07:00-21:30",\n    "shop": "supermarket"\n  }\n},\n{\n  "type": "node",\n  "id": 5036973890,\n  "lat": 51.4518570,\n  "lon": 7.2314288,\n  "tags": {\n    "addr:city": "Bochum",\n    "addr:country": "DE",\n    "addr:housenumber": "56",\n    "addr:postcode": "44799",\n    "addr:street": "Brenscheder Stra\xc3\x9fe",\n    "brand": "Netto Marken-Discount",\n    "brand:wikidata": "Q879858",\n    "brand:wikipedia": "de:Netto Marken-Discount",\n    "changing_table": "no",\n    "check_date": "2025-05-07",\n    "check_date:opening_hours": "2025-02-15",\n    "currency:EUR": "yes",\n    "level": "0",\n    "name": "Netto Marken-Discount",\n    "opening_hours": "Mo-Sa 07:00-21:00",\n    "payment:cash": "yes",\n    "payment:girocard": "yes",\n    "second_hand": "no",\n    "shop": "supermarket",\n    "stroller": "yes",\n    "toilets": "no",\n    "toilets:menstrual_products": "no",\n    "toilets:wheelchair": "no",\n    "website": "https://www.netto-online.de/filialen/Bochum/Brenscheder-Str-56/6205/",\n    "wheelchair": "yes"\n  }\n},\n{\n  "type": "node",\n  "id": 5111172830,\n  "lat": 51.4770837,\n  "lon": 7.3022327,\n  "tags": {\n    "addr:city": "Bochum",\n    "addr:housenumber": "205",\n    "addr:postcode": "44892",\n    "addr:street": "Alte Bahnhofstra\xc3\x9fe",\n    "check_date": "2024-08-27",\n    "level": "0",\n    "name": "Umut Supermarkt",\n    "opening_hours": "Mo-Sa 06:30-22:30",\n    "shop": "supermarket",\n    "wheelchair": "yes"\n  }\n},\n{\n  "type": "node",\n  "id": 5264552784,\n  "lat": 51.4794968,\n  "lon": 7.2066127,\n  "tags": {\n    "addr:city": "Bochum",\n    "addr:country": "DE",\n    "addr:housenumber": "65a",\n    "addr:postcode": "44793",\n    "addr:street": "Alleestra\xc3\x9fe",\n    "branch": "Jahrhunderthalle",\n    "brand": "Penny",\n    "brand:wikidata": "Q284688",\n    "brand:wikipedia": "en:Penny (supermarket)",\n    "check_date:opening_hours": "2024-05-15",\n    "fair_trade": "yes",\n    "name": "Penny",\n    "opening_hours": "Mo-Sa 07:00-22:00",\n    "operator": "Penny-Markt GmbH",\n    "payment:cash": "yes",\n    "payment:debit_cards": "yes",\n    "shop": "supermarket",\n    "toilets:wheelchair": "no",\n    "website": "https://www.penny.de/",\n    "wheelchair": "yes"\n  }\n},\n{\n  "type": "node",\n  "id": 5312602107,\n  "lat": 51.4620459,\n  "lon": 7.2036033,\n  "tags": {\n    "addr:city": "Bochum",\n    "addr:country": "DE",\n    "addr:housenumber": "223a",\n    "addr:postcode": "44795",\n    "addr:street": "Hattinger Stra\xc3\x9fe",\n    "brand": "Rewe",\n    "brand:wikidata": "Q16968817",\n    "brand:wikipedia": "en:REWE",\n    "contact:phone": "+49 234 3253730",\n    "contact:website": "http://rewe-mokanski.de/cms/website.php?id=/de/index/maerkte/hattingerstrasse.htm",\n    "name": "Rewe",\n    "opening_hours": "Mo-Sa 07:00-22:00; Su,PH off",\n    "operator": "Mokanski Einzelhandels OHG",\n    "shop": "supermarket",\n    "wheelchair": "yes"\n  }\n},\n{\n  "type": "node",\n  "id": 5368593964,\n  "lat": 51.4843739,\n  "lon": 7.2169238,\n  "tags": {\n    "addr:city": "Bochum",\n    "addr:country": "DE",\n    "addr:housenumber": "40",\n    "addr:postcode": "44787",\n    "addr:street": "Br\xc3\xbcckstra\xc3\x9fe",\n    "check_date": "2024-11-22",\n    "name": "Kashmir-Bazar",\n    "payment:girocard": "yes",\n    "shop": "supermarket",\n    "surveillance": "indoor",\n    "toilets": "yes",\n    "wheelchair": "limited"\n  }\n},\n{\n  "type": "node",\n  "id": 5481460920,\n  "lat": 51.4706594,\n  "lon": 7.2672978,\n  "tags": {\n    "addr:city": "Bochum",\n    "addr:country": "DE",\n    "addr:housenumber": "3a",\n    "addr:postcode": "44803",\n    "addr:street": "Alte Wittener Stra\xc3\x9fe",\n    "addr:suburb": "Laer",\n    "check_date": "2023-08-11",\n    "level": "0",\n    "name": "Smak-Markt",\n    "opening_hours": "Mo-Sa 08:00-19:00",\n    "shop": "supermarket",\n    "source": "survey",\n    "stroller": "yes",\n    "wheelchair": "yes"\n  }\n},\n{\n  "type": "node",\n  "id": 5747042063,\n  "lat": 51.4914370,\n  "lon": 7.3067327,\n  "tags": {\n    "addr:city": "Bochum",\n    "addr:housenumber": "490",\n    "addr:postcode": "44894",\n    "addr:street": "Werner Hellweg",\n    "name": "Fr\xc3\xbchling Markt",\n    "opening_hours": "Mo-Sa 08:00-20:00",\n    "shop": "supermarket",\n    "wheelchair": "no"\n  }\n},\n{\n  "type": "node",\n  "id": 5752224388,\n  "lat": 51.4544258,\n  "lon": 7.1480407,\n  "tags": {\n    "addr:city": "Bochum",\n    "addr:country": "DE",\n    "addr:housenumber": "35",\n    "addr:postcode": "44869",\n    "addr:street": "Ginsterweg",\n    "brand": "Penny",\n    "brand:wikidata": "Q284688",\n    "brand:wikipedia": "en:Penny (supermarket)",\n    "contact:website": "https://www.penny.de/",\n    "name": "Penny",\n    "opening_hours": "Mo-Sa 08:00-21:30; Su,PH off",\n    "payment:cash": "yes",\n    "payment:cryptocurrencies": "no",\n    "payment:electronic_purses": "no",\n    "payment:girocard": "yes",\n    "payment:mastercard": "yes",\n    "shop": "supermarket",\n    "wheelchair": "yes"\n  }\n},\n{\n  "type": "node",\n  "id": 6106171854,\n  "lat": 51.4841684,\n  "lon": 7.2154783,\n  "tags": {\n    "addr:city": "Bochum",\n    "addr:country": "DE",\n    "addr:housenumber": "19",\n    "addr:postcode": "44787",\n    "addr:street": "Hans-B\xc3\xb6ckler-Stra\xc3\x9fe",\n    "check_date": "2024-11-15",\n    "name": "Supermarkt am Rathaus",\n    "opening_hours": "Mo-Sa 08:00-20:00",\n    "shop": "supermarket",\n    "wheelchair": "yes"\n  }\n},\n{\n  "type": "node",\n  "id": 6258812707,\n  "lat": 51.4858209,\n  "lon": 7.2135992,\n  "tags": {\n    "addr:city": "Bochum",\n    "addr:country": "DE",\n    "addr:housenumber": "1-3",\n    "addr:postcode": "44787",\n    "addr:street": "Dorstener Stra\xc3\x9fe",\n    "level": "0",\n    "name": "Diyar Markt",\n    "shop": "supermarket"\n  }\n},\n{\n  "type": "node",\n  "id": 6284488924,\n  "lat": 51.4802246,\n  "lon": 7.1398893,\n  "tags": {\n    "addr:city": "Bochum",\n    "addr:housenumber": "19",\n    "addr:postcode": "44866",\n    "addr:street": "Hochstra\xc3\x9fe",\n    "name": "Sayyan Markt",\n    "opening_hours": "Mo-Sa 09:00-20:00",\n    "payment:cash": "yes",\n    "shop": "supermarket"\n  }\n},\n{\n  "type": "node",\n  "id": 6288843042,\n  "lat": 51.4718358,\n  "lon": 7.3219200,\n  "tags": {\n    "addr:city": "Bochum",\n    "addr:housenumber": "25",\n    "addr:postcode": "44892",\n    "addr:street": "Alte Bahnhofstra\xc3\x9fe",\n    "name": "Bochum Market",\n    "payment:cash": "yes",\n    "shop": "supermarket"\n  }\n},\n{\n  "type": "node",\n  "id": 6355036724,\n  "lat": 51.4756427,\n  "lon": 7.2358068,\n  "tags": {\n    "addr:city": "Bochum",\n    "addr:country": "DE",\n    "addr:housenumber": "111",\n    "addr:postcode": "44803",\n    "addr:street": "Wittener Stra\xc3\x9fe",\n    "check_date": "2025-01-21",\n    "check_date:opening_hours": "2025-01-21",\n    "fair_trade": "yes",\n    "name": "Biokauf",\n    "opening_hours": "Mo-Fr 08:00-20:00; Sa 08:00-18:00; PH off",\n    "organic": "only",\n    "payment:cash": "yes",\n    "payment:girocard": "yes",\n    "shop": "supermarket",\n    "website": "http://www.biokauf-besser-essen.de/",\n    "wheelchair": "yes"\n  }\n},\n{\n  "type": "node",\n  "id": 6356078760,\n  "lat": 51.4759466,\n  "lon": 7.2144953,\n  "tags": {\n    "addr:city": "Bochum",\n    "addr:country": "DE",\n    "addr:housenumber": "5-6",\n    "addr:postcode": "44787",\n    "addr:street": "Konrad-Adenauer-Platz",\n    "brand": "Lidl",\n    "brand:wikidata": "Q151954",\n    "brand:wikipedia": "en:Lidl",\n    "check_date": "2024-11-15",\n    "check_date:opening_hours": "2022-10-20",\n    "name": "Lidl",\n    "opening_hours": "Mo-Sa 07:00-21:00",\n    "payment:cash": "yes",\n    "payment:girocard": "yes",\n    "shop": "supermarket",\n    "wheelchair": "yes"\n  }\n},\n{\n  "type": "node",\n  "id": 6356133899,\n  "lat": 51.4727807,\n  "lon": 7.2442514,\n  "tags": {\n    "addr:city": "Bochum",\n    "addr:country": "DE",\n    "addr:housenumber": "14",\n    "addr:postcode": "44803",\n    "addr:street": "Lindengraben",\n    "brand": "Aldi Nord",\n    "brand:wikidata": "Q41171373",\n    "brand:wikipedia": "en:Aldi",\n    "check_date:opening_hours": "2025-01-22",\n    "dog": "no",\n    "name": "Aldi Nord",\n    "opening_hours": "Mo-Sa 07:00-20:00; PH off",\n    "payment:american_express": "yes",\n    "payment:diners_club": "yes",\n    "payment:discover_card": "yes",\n    "payment:girocard": "yes",\n    "payment:maestro": "yes",\n    "payment:mastercard": "yes",\n    "payment:v_pay": "yes",\n    "payment:visa": "yes",\n    "shop": "supermarket",\n    "smoking": "no",\n    "website": "https://www.aldi-nord.de/filialen-und-oeffnungszeiten.html/l/bochum/lindengraben-14/3180829",\n    "wheelchair": "limited"\n  }\n},\n{\n  "type": "node",\n  "id": 6577668747,\n  "lat": 51.4844789,\n  "lon": 7.2162317,\n  "tags": {\n    "addr:city": "Bochum",\n    "addr:country": "DE",\n    "addr:housenumber": "39",\n    "addr:postcode": "44787",\n    "addr:street": "Br\xc3\xbcckstra\xc3\x9fe",\n    "addr:suburb": "Innenstadt",\n    "check_date": "2024-11-15",\n    "level": "0",\n    "name": "Rabie",\n    "payment:cash": "yes",\n    "shop": "supermarket"\n  }\n},\n{\n  "type": "node",\n  "id": 6779615110,\n  "lat": 51.4269186,\n  "lon": 7.1429087,\n  "tags": {\n    "addr:city": "Bochum",\n    "addr:housenumber": "132",\n    "addr:postcode": "44879",\n    "addr:street": "Dr.-C.-Otto-Stra\xc3\x9fe",\n    "check_date": "2023-07-12",\n    "name": "Anadolu Lebensmittel",\n    "shop": "supermarket",\n    "wheelchair": "no"\n  }\n},\n{\n  "type": "node",\n  "id": 6900754953,\n  "lat": 51.4868160,\n  "lon": 7.2118307,\n  "tags": {\n    "addr:city": "Bochum",\n    "addr:country": "DE",\n    "addr:housenumber": "19",\n    "addr:postcode": "44787",\n    "addr:street": "Dorstener Stra\xc3\x9fe",\n    "name": "Markt Al Badia Orientalische Lebensmittel",\n    "shop": "supermarket"\n  }\n},\n{\n  "type": "node",\n  "id": 6929746498,\n  "lat": 51.4851641,\n  "lon": 7.1336831,\n  "tags": {\n    "addr:city": "Bochum",\n    "addr:housenumber": "58",\n    "addr:postcode": "44866",\n    "addr:street": "Marienstra\xc3\x9fe",\n    "name": "Eyl\xc3\xbcl",\n    "shop": "supermarket"\n  }\n},\n{\n  "type": "node",\n  "id": 7076853608,\n  "lat": 51.4694597,\n  "lon": 7.2441396,\n  "tags": {\n    "addr:city": "Bochum",\n    "addr:country": "DE",\n    "addr:housenumber": "28",\n    "addr:postcode": "44803",\n    "addr:street": "Wasserstra\xc3\x9fe",\n    "brand": "Netto Marken-Discount",\n    "brand:wikidata": "Q879858",\n    "brand:wikipedia": "de:Netto Marken-Discount",\n    "check_date": "2025-05-21",\n    "check_date:opening_hours": "2025-03-25",\n    "name": "Netto Marken-Discount",\n    "opening_hours": "Mo-Sa 07:00-22:00",\n    "shop": "supermarket",\n    "toilets:wheelchair": "no",\n    "website": "https://www.netto-online.de/filialen/Bochum/Wasserstr-28/5737/",\n    "wheelchair": "yes"\n  }\n},\n{\n  "type": "node",\n  "id": 7174666148,\n  "lat": 51.4862589,\n  "lon": 7.2141602,\n  "tags": {\n    "addr:city": "Bochum",\n    "addr:housenumber": "7",\n    "addr:postcode": "44787",\n    "addr:street": "Herner Stra\xc3\x9fe",\n    "name": "Nada Markt",\n    "shop": "supermarket"\n  }\n},\n{\n  "type": "node",\n  "id": 7193145639,\n  "lat": 51.5194163,\n  "lon": 7.2776169,\n  "tags": {\n    "addr:city": "Bochum",\n    "addr:country": "DE",\n    "addr:housenumber": "10",\n    "addr:postcode": "44805",\n    "addr:street": "Lothringer Stra\xc3\x9fe",\n    "name": "Al-Shaba Markt",\n    "shop": "supermarket",\n    "wheelchair": "yes"\n  }\n},\n{\n  "type": "node",\n  "id": 7455898835,\n  "lat": 51.4804434,\n  "lon": 7.1375659,\n  "tags": {\n    "name": "Nasza Biedronka",\n    "opening_hours": "Mo-Sa 08:00-21:00",\n    "shop": "supermarket"\n  }\n},\n{\n  "type": "node",\n  "id": 8839138530,\n  "lat": 51.4775808,\n  "lon": 7.3022887,\n  "tags": {\n    "addr:city": "Bochum",\n    "addr:country": "DE",\n    "addr:housenumber": "208",\n    "addr:postcode": "44892",\n    "addr:street": "Alte Bahnhofstra\xc3\x9fe",\n    "brand": "Netto Marken-Discount",\n    "brand:wikidata": "Q879858",\n    "brand:wikipedia": "de:Netto Marken-Discount",\n    "kids_area": "no",\n    "level": "0",\n    "name": "Netto Marken-Discount",\n    "opening_hours": "Mo-Sa 07:00-21:00",\n    "operator": "Netto",\n    "organic": "yes",\n    "payment:cash": "yes",\n    "payment:contactless": "yes",\n    "payment:credit_cards": "yes",\n    "payment:debit_cards": "yes",\n    "shop": "supermarket",\n    "website": "https://www.netto-online.de/filialen/Bochum/Alte-Bahnhofstr-208/2589/",\n    "wheelchair": "yes"\n  }\n},\n{\n  "type": "node",\n  "id": 9282727950,\n  "lat": 51.4394147,\n  "lon": 7.1577889,\n  "tags": {\n    "name": "Essich",\n    "shop": "supermarket"\n  }\n},\n{\n  "type": "node",\n  "id": 9927347590,\n  "lat": 51.5050365,\n  "lon": 7.2121887,\n  "tags": {\n    "addr:city": "Bochum",\n    "addr:housenumber": "299",\n    "addr:postcode": "44809",\n    "addr:street": "Herner Stra\xc3\x9fe",\n    "email": "hallo@mein-asiamarkt.de",\n    "name": "Tains Store Bochum",\n    "opening_hours": "Mo-Sa 09:00-21:00",\n    "operator": "Tains \xe2\x80\x93 mein-asiamarkt GmbH",\n    "phone": "+49 234 94131316",\n    "ref:vatin": "DE297970558",\n    "shop": "supermarket"\n  }\n},\n{\n  "type": "node",\n  "id": 10271476778,\n  "lat": 51.4839037,\n  "lon": 7.2159438,\n  "tags": {\n    "check_date": "2025-02-24",\n    "name": "Alstura",\n    "shop": "supermarket"\n  }\n},\n{\n  "type": "node",\n  "id": 11111335602,\n  "lat": 51.4809702,\n  "lon": 7.2177736,\n  "tags": {\n    "brand": "Go Asia",\n    "brand:wikidata": "Q102381911",\n    "check_date": "2024-01-27",\n    "level": "-1",\n    "name": "Go Asia",\n    "opening_hours": "Mo-Sa 09:00-20:00; PH off",\n    "shop": "supermarket"\n  }\n},\n{\n  "type": "node",\n  "id": 11272174435,\n  "lat": 51.4800415,\n  "lon": 7.2155499,\n  "tags": {\n    "addr:city": "Bochum",\n    "addr:country": "DE",\n    "addr:housenumber": "14c",\n    "addr:postcode": "44787",\n    "addr:street": "Viktoriastra\xc3\x9fe",\n    "brand": "Rewe",\n    "brand:wikidata": "Q16968817",\n    "name": "Rewe Mert",\n    "opening_hours": "Mo-Sa 08:00-23:30; PH off",\n    "self_checkout": "yes",\n    "shop": "supermarket",\n    "wheelchair": "yes"\n  }\n},\n{\n  "type": "node",\n  "id": 11566144694,\n  "lat": 51.4612126,\n  "lon": 7.2013490,\n  "tags": {\n    "addr:city": "Bochum",\n    "addr:country": "DE",\n    "addr:housenumber": "247",\n    "addr:postcode": "44795",\n    "addr:street": "Hattinger Stra\xc3\x9fe",\n    "name": "Anatolya Supermarket",\n    "opening_hours": "Mo-Sa 7:00-19:00; PH off",\n    "shop": "supermarket"\n  }\n},\n{\n  "type": "node",\n  "id": 11694221077,\n  "lat": 51.4948151,\n  "lon": 7.1806289,\n  "tags": {\n    "addr:city": "Bochum",\n    "addr:country": "DE",\n    "addr:housenumber": "109",\n    "addr:postcode": "44793",\n    "addr:street": "Karolinenstra\xc3\x9fe",\n    "contact:phone": "+49 234 95803261",\n    "name": "arena Einkaufszentrum",\n    "shop": "supermarket"\n  }\n},\n{\n  "type": "node",\n  "id": 12325674940,\n  "lat": 51.4814781,\n  "lon": 7.2092191,\n  "tags": {\n    "addr:city": "Bochum",\n    "addr:country": "DE",\n    "addr:housenumber": "38-40",\n    "addr:postcode": "44793",\n    "addr:street": "Alleestra\xc3\x9fe",\n    "brand": "ALDI Nord",\n    "brand:wikidata": "Q41171373",\n    "check_date": "2024-11-27",\n    "contact:website": "https://www.aldi-nord.de/",\n    "name": "ALDI",\n    "opening_hours": "Mo-Sa 7:00-21:00; PH off",\n    "shop": "supermarket"\n  }\n},\n{\n  "type": "node",\n  "id": 12842437936,\n  "lat": 51.4618655,\n  "lon": 7.2029719,\n  "tags": {\n    "brand": "Netto Marken-Discount",\n    "brand:wikidata": "Q879858",\n    "name": "Netto Marken-Discount",\n    "opening_hours": "Mo-Sa 07:00-22:00",\n    "shop": "supermarket"\n  }\n},\n{\n  "type": "way",\n  "id": 52089312,\n  "center": {\n    "lat": 51.4550895,\n    "lon": 7.2483944\n  },\n  "nodes": [\n    2984140893,\n    663861832,\n    2984140891,\n    2984140890,\n    2984140888,\n    663861800,\n    2984140876,\n    2984140854,\n    2984140844,\n    2984140881,\n    2984140892,\n    2984140895,\n    2984140898,\n    2984140901,\n    2984140896,\n    3342705693,\n    2984140900,\n    2984140903,\n    2984140893\n  ],\n  "tags": {\n    "addr:city": "Bochum",\n    "addr:country": "DE",\n    "addr:housenumber": "122",\n    "addr:postcode": "44803",\n    "addr:street": "Markstra\xc3\x9fe",\n    "building": "apartments",\n    "building:levels": "4",\n    "check_date:opening_hours": "2024-04-04",\n    "layer": "1",\n    "name": "frischmarkt",\n    "opening_hours": "Mo-Sa 07:00-22:00",\n    "roof:levels": "0",\n    "shop": "supermarket",\n    "source:outline": "ALKIS NRW",\n    "wheelchair": "yes"\n  }\n},\n{\n  "type": "way",\n  "id": 86124901,\n  "center": {\n    "lat": 51.4415837,\n    "lon": 7.2132768\n  },\n  "nodes": [\n    2656566547,\n    2656566170,\n    2656564688,\n    2656564876,\n    2656564972,\n    2656565149,\n    2656565126,\n    2656565151,\n    2656565336,\n    2656565583,\n    2656566021,\n    4856171249,\n    2656565934,\n    2656566547\n  ],\n  "tags": {\n    "addr:city": "Bochum",\n    "addr:country": "DE",\n    "addr:housenumber": "410",\n    "addr:postcode": "44795",\n    "addr:street": "Markstra\xc3\x9fe",\n    "brand": "Netto Marken-Discount",\n    "brand:wikidata": "Q879858",\n    "brand:wikipedia": "de:Netto Marken-Discount",\n    "building": "parking",\n    "name": "Netto Marken-Discount",\n    "opening_hours": "Mo-Sa 07:00-22:00",\n    "payment:Netto-App": "yes",\n    "payment:ec": "yes",\n    "payment:girocard": "yes",\n    "payment:maestro": "yes",\n    "payment:mastercard": "yes",\n    "payment:v_pay": "yes",\n    "payment:visa": "yes",\n    "shop": "supermarket",\n    "website": "https://www.netto-online.de/filialen/Bochum/Markstr-410/9004/",\n    "wheelchair": "yes"\n  }\n},\n{\n  "type": "way",\n  "id": 89674421,\n  "center": {\n    "lat": 51.4665066,\n    "lon": 7.2039870\n  },\n  "nodes": [\n    2664876728,\n    2664876730,\n    2664876726,\n    2664876724,\n    2664876721,\n    2664876722,\n    2664876720,\n    2664876719,\n    2664876687,\n    2664876689,\n    2664876685,\n    2664876683,\n    2664876658,\n    2664876665,\n    2664876663,\n    2664876695,\n    2664876699,\n    2664876713,\n    2664876704,\n    2664876702,\n    2664876679,\n    2664876681,\n    2664876675,\n    2664876673,\n    2664876667,\n    2664876669,\n    2664876661,\n    2664876650,\n    2664876588,\n    2664876608,\n    2664876579,\n    2664876567,\n    2664876558,\n    2664876560,\n    2664876384,\n    2664876341,\n    2664876348,\n    2664876311,\n    2664876302,\n    2664876270,\n    2664876279,\n    2664876165,\n    2664876154,\n    2664876138,\n    2664876147,\n    2664875977,\n    2664875975,\n    2664875962,\n    2664875965,\n    2664875896,\n    2664875895,\n    2664875892,\n    2664875894,\n    2664875917,\n    2664875898,\n    2664875966,\n    2664875968,\n    2664875971,\n    2664876084,\n    2664876062,\n    2664876071,\n    2664875952,\n    2664875950,\n    2664875940,\n    2664875944,\n    2664875890,\n    2664875889,\n    2664875873,\n    2664875885,\n    2664875887,\n    2664875922,\n    2664875897,\n    2664875927,\n    2664875937,\n    2664875954,\n    2664875948,\n    2664875956,\n    2664875958,\n    2664875989,\n    2664875979,\n    2664876011,\n    2664876020,\n    2664876112,\n    2664876097,\n    2664876114,\n    2664876121,\n    2664876234,\n    2664876207,\n    2664876242,\n    2664876249,\n    2664876287,\n    2664876264,\n    2664876294,\n    2664876318,\n    2664876333,\n    2664876324,\n    2664876355,\n    2664876358,\n    2664876573,\n    2664876565,\n    2664876599,\n    2664876625,\n    2664876616,\n    2664876691,\n    2664876693,\n    2664876709,\n    2664876706,\n    2664876727,\n    2664876729,\n    2664876742,\n    2664876735,\n    2664876788,\n    2664876800,\n    2664876819,\n    2664876811,\n    2664876807,\n    2664876774,\n    2664876781,\n    2664876766,\n    2664876749,\n    2664876728\n  ],\n  "tags": {\n    "addr:city": "Bochum",\n    "addr:country": "DE",\n    "addr:housenumber": "22",\n    "addr:postcode": "44795",\n    "addr:street": "An der Landwehr",\n    "brand": "ALDI Nord",\n    "brand:wikidata": "Q41171373",\n    "brand:wikipedia": "en:Aldi",\n    "building": "retail",\n    "name": "ALDI Nord",\n    "opening_hours": "Mo-Sa 07:00-21:00",\n    "operator": "ALDI Nord",\n    "shop": "supermarket",\n    "wheelchair": "yes"\n  }\n},\n{\n  "type": "way",\n  "id": 93179621,\n  "center": {\n    "lat": 51.4967040,\n    "lon": 7.1905201\n  },\n  "nodes": [\n    1080172604,\n    1080172582,\n    1080172594,\n    1080172610,\n    1080172602,\n    1080172618,\n    1080172604\n  ],\n  "tags": {\n    "addr:city": "Bochum",\n    "addr:country": "DE",\n    "addr:housenumber": "6",\n    "addr:postcode": "44809",\n    "addr:street": "Freudenbergstra\xc3\x9fe",\n    "brand": "Lidl",\n    "brand:wikidata": "Q151954",\n    "brand:wikipedia": "en:Lidl",\n    "building": "retail",\n    "building:levels": "2",\n    "check_date:opening_hours": "2024-10-19",\n    "name": "Lidl",\n    "opening_hours": "Mo-Sa 07:00-21:00",\n    "roof:levels": "0",\n    "roof:shape": "skillion",\n    "shop": "supermarket",\n    "toilets:wheelchair": "no",\n    "wheelchair": "yes"\n  }\n},\n{\n  "type": "way",\n  "id": 93950765,\n  "center": {\n    "lat": 51.4721548,\n    "lon": 7.1200015\n  },\n  "nodes": [\n    1092210599,\n    1092209973,\n    1092209382,\n    1092209152,\n    1092210268,\n    1092209462,\n    1092210530,\n    1092209780,\n    1092209194,\n    4014797793,\n    1092210395,\n    1092209700,\n    1092209080,\n    1092210057,\n    2183227341,\n    1092209884,\n    1092209294,\n    1092210341,\n    1092209653,\n    1092210599\n  ],\n  "tags": {\n    "addr:city": "Bochum",\n    "addr:country": "DE",\n    "addr:housenumber": "40-43",\n    "addr:postcode": "44867",\n    "addr:street": "Ottostra\xc3\x9fe",\n    "addr:suburb": "Wattenscheid",\n    "brand": "Kaufland",\n    "brand:wikidata": "Q685967",\n    "brand:wikipedia": "en:Kaufland",\n    "building": "supermarket",\n    "building:levels": "2",\n    "name": "Kaufland",\n    "old_name": "Real",\n    "opening_hours": "Mo-Sa 08:00-22:00",\n    "payment:cash": "yes",\n    "payment:debit_cards": "yes",\n    "payment:girocard": "yes",\n    "roof:shape": "flat",\n    "shop": "supermarket",\n    "start_date": "2021-02-03",\n    "toilets": "yes",\n    "toilets:access": "customers",\n    "toilets:fee": "no",\n    "toilets:wheelchair": "yes",\n    "website": "https://www.kaufland.de",\n    "wheelchair": "yes"\n  }\n},\n{\n  "type": "way",\n  "id": 94494692,\n  "center": {\n    "lat": 51.5004228,\n    "lon": 7.2047172\n  },\n  "nodes": [\n    1097647775,\n    11539027350,\n    2851558961,\n    4789970138,\n    2851558962,\n    1876800649,\n    11539027349,\n    11539027348,\n    1097647886,\n    2213288349,\n    11539027347,\n    11539027346,\n    1881710600,\n    11539027344,\n    11539027345,\n    1881710603,\n    1097647832,\n    3043482402,\n    6221522023,\n    1097647775\n  ],\n  "tags": {\n    "addr:city": "Bochum",\n    "addr:country": "DE",\n    "addr:housenumber": "2",\n    "addr:postcode": "44809",\n    "addr:street": "Speicherstra\xc3\x9fe",\n    "addr:suburb": "Hofstede",\n    "brand": "Kaufland",\n    "brand:wikidata": "Q685967",\n    "brand:wikipedia": "en:Kaufland",\n    "building": "retail",\n    "contact:phone": "+49 234 95718620",\n    "contact:website": "https://www.kaufland.de/",\n    "email": "service@kaufland.de",\n    "name": "Kaufland",\n    "opening_hours": "Mo-Sa 07:00-22:00; Su,PH off",\n    "payment:cash": "yes",\n    "payment:girocard": "yes",\n    "shop": "supermarket",\n    "toilets:wheelchair": "yes",\n    "website": "https://www.kaufland.de/",\n    "wheelchair": "yes"\n  }\n},\n{\n  "type": "way",\n  "id": 94496498,\n  "center": {\n    "lat": 51.5029159,\n    "lon": 7.2036704\n  },\n  "nodes": [\n    1097653892,\n    1097653918,\n    1097653874,\n    1097653877,\n    1097653952,\n    1097653943,\n    1097653948,\n    1097653892\n  ],\n  "tags": {\n    "addr:city": "Bochum",\n    "addr:country": "DE",\n    "addr:housenumber": "70-72",\n    "addr:postcode": "44809",\n    "addr:street": "Poststra\xc3\x9fe",\n    "brand": "Lidl",\n    "brand:wikidata": "Q151954",\n    "brand:wikipedia": "en:Lidl",\n    "building": "supermarket",\n    "check_date": "2024-03-26",\n    "name": "Lidl",\n    "opening_hours": "Mo-Sa 07:00-21:00; Su,PH off",\n    "payment:cash": "yes",\n    "payment:credit_cards": "yes",\n    "payment:debit_cards": "yes",\n    "shop": "supermarket",\n    "source": "bing",\n    "toilets:wheelchair": "no",\n    "wheelchair": "yes"\n  }\n},\n{\n  "type": "way",\n  "id": 96413655,\n  "center": {\n    "lat": 51.4837999,\n    "lon": 7.2253555\n  },\n  "nodes": [\n    1117297047,\n    1859048471,\n    1859048472,\n    1117297218,\n    1117297295,\n    6031498620,\n    1117297213,\n    1117296936,\n    1117297239,\n    1117296984,\n    1117297285,\n    1117297089,\n    1117297047\n  ],\n  "tags": {\n    "addr:city": "Bochum",\n    "addr:country": "DE",\n    "addr:housenumber": "7",\n    "addr:postcode": "44791",\n    "addr:street": "Blumenstra\xc3\x9fe",\n    "brand": "ALDI Nord",\n    "brand:wikidata": "Q41171373",\n    "brand:wikipedia": "en:Aldi",\n    "building": "retail",\n    "check_date": "2025-05-06",\n    "name": "Aldi",\n    "opening_hours": "Mo-Sa 07:00-20:00; PH off",\n    "payment:cash": "yes",\n    "payment:girocard": "yes",\n    "shop": "supermarket",\n    "website": "https://www.aldi-nord.de/tools/filialen-und-oeffnungszeiten/nordrhein-westfalen/bochum/blumenstrasse-7.html",\n    "wheelchair": "yes"\n  }\n},\n{\n  "type": "way",\n  "id": 97722467,\n  "center": {\n    "lat": 51.4700240,\n    "lon": 7.2933530\n  },\n  "nodes": [\n    1131305517,\n    1335827500,\n    1335827566,\n    1335827611,\n    1335827645,\n    1131305479,\n    6267518855,\n    1131305328,\n    1131305462,\n    1131305536,\n    1131305447,\n    1131305522,\n    1131305421,\n    1131305517\n  ],\n  "tags": {\n    "addr:city": "Bochum",\n    "addr:country": "DE",\n    "addr:housenumber": "90",\n    "addr:postcode": "44892",\n    "addr:street": "\xc3\x9cmminger Stra\xc3\x9fe",\n    "brand": "Kaufland",\n    "brand:wikidata": "Q685967",\n    "brand:wikipedia": "de:Kaufland",\n    "building": "retail",\n    "building:levels": "1",\n    "diet:halal": "yes",\n    "name": "Kaufland",\n    "opening_hours": "Mo-Sa 07:00-22:00",\n    "phone": "+49 234 96290480",\n    "roof:colour": "grey",\n    "roof:shape": "flat",\n    "shop": "supermarket",\n    "website": "https://www.kaufland.de/",\n    "wheelchair": "yes"\n  }\n},\n{\n  "type": "way",\n  "id": 98021040,\n  "center": {\n    "lat": 51.4765022,\n    "lon": 7.3002515\n  },\n  "nodes": [\n    1134262601,\n    11385379740,\n    11385392882,\n    1134262481,\n    11385393010,\n    1134262688,\n    6015997944,\n    2048122448,\n    2048122449,\n    11380223865,\n    11380251577,\n    11380223794,\n    11380223826,\n    11380251635,\n    11380251599,\n    11380223823,\n    11380251576,\n    11380251647,\n    11380251581,\n    11380251622,\n    1134262601\n  ],\n  "tags": {\n    "brand": "Lidl",\n    "brand:wikidata": "Q151954",\n    "brand:wikipedia": "en:Lidl",\n    "building:levels": "1",\n    "building:part": "yes",\n    "internet_access": "wlan",\n    "name": "Lidl",\n    "opening_hours": "Mo-Sa 07:00-21:00",\n    "roof:colour": "red",\n    "roof:levels": "0",\n    "roof:material": "roof_tiles",\n    "roof:shape": "gabled",\n    "shop": "supermarket",\n    "website": "https://lidl.de/store",\n    "wheelchair": "yes"\n  }\n},\n{\n  "type": "way",\n  "id": 98429663,\n  "center": {\n    "lat": 51.4736482,\n    "lon": 7.3179063\n  },\n  "nodes": [\n    12873855499,\n    12873871707,\n    12873871711,\n    12873871712,\n    12873871708,\n    1138889276,\n    1138889403,\n    10717367305,\n    10717367306,\n    10313166624,\n    10313166625,\n    12873871703,\n    12873855491,\n    1138889898,\n    12873871710,\n    12873855488,\n    12873871704,\n    295444429,\n    12873871713,\n    12873855499\n  ],\n  "tags": {\n    "addr:city": "Bochum",\n    "addr:country": "DE",\n    "addr:housenumber": "56",\n    "addr:postcode": "44892",\n    "addr:street": "Unterstra\xc3\x9fe",\n    "addr:suburb": "Langendreer",\n    "brand": "Aldi",\n    "brand:wikidata": "Q125054",\n    "brand:wikipedia": "en:Aldi",\n    "building:levels": "1",\n    "building:part": "retail",\n    "level": "0",\n    "name": "Aldi",\n    "opening_hours": "Mo-Sa 07:00-21:00",\n    "payment:cash": "yes",\n    "payment:debit_cards": "yes",\n    "roof:shape": "flat",\n    "shop": "supermarket",\n    "wheelchair": "yes"\n  }\n},\n{\n  "type": "way",\n  "id": 111135303,\n  "center": {\n    "lat": 51.4702593,\n    "lon": 7.3171360\n  },\n  "nodes": [\n    1266930665,\n    1266930657,\n    1266930661,\n    1266930668,\n    1266930667,\n    1266930659,\n    1266930654,\n    1266930663,\n    1457591002,\n    1266930665\n  ],\n  "tags": {\n    "addr:city": "Bochum",\n    "addr:country": "DE",\n    "addr:housenumber": "67",\n    "addr:postcode": "44892",\n    "addr:street": "Alte Bahnhofstra\xc3\x9fe",\n    "addr:suburb": "Langendreer",\n    "brand": "Netto Marken-Discount",\n    "brand:wikidata": "Q879858",\n    "brand:wikipedia": "de:Netto Marken-Discount",\n    "building": "retail",\n    "building:levels": "1",\n    "name": "Netto Marken-Discount",\n    "opening_hours": "Mo-Sa 07:00-21:00",\n    "payment:cash": "yes",\n    "shop": "supermarket",\n    "website": "https://www.netto-online.de/filialen/Bochum/Alte-Bahnhofstr-67/6315/",\n    "wheelchair": "yes"\n  }\n},\n{\n  "type": "way",\n  "id": 114576928,\n  "center": {\n    "lat": 51.4771149,\n    "lon": 7.2162049\n  },\n  "nodes": [\n    1297525031,\n    6356460934,\n    6356460936,\n    6442749657,\n    1056698018,\n    6442801948,\n    12213354886,\n    1297524864,\n    1297525137,\n    6442749658,\n    1297525052,\n    1297524972,\n    1297525009,\n    1297525182,\n    1297524872,\n    1297525031\n  ],\n  "tags": {\n    "addr:city": "Bochum",\n    "addr:country": "DE",\n    "addr:housenumber": "17",\n    "addr:postcode": "44787",\n    "addr:street": "Kortumstra\xc3\x9fe",\n    "brand": "REWE",\n    "brand:wikidata": "Q16968817",\n    "brand:wikipedia": "de:Rewe",\n    "building": "retail",\n    "building:levels": "4",\n    "name": "REWE",\n    "opening_hours": "Mo-Fr 07:00-24:00; Sa 07:00-22:00",\n    "payment:cash": "yes",\n    "payment:girocard": "yes",\n    "roof:levels": "0",\n    "shop": "supermarket",\n    "wheelchair": "yes"\n  }\n},\n{\n  "type": "way",\n  "id": 119641389,\n  "center": {\n    "lat": 51.4395957,\n    "lon": 7.1582340\n  },\n  "nodes": [\n    2732402419,\n    2732401981,\n    2732401439,\n    2732401392,\n    2732401131,\n    2732401173,\n    2732401135,\n    2732401251,\n    2732401378,\n    2732402027,\n    6970397450,\n    2732402306,\n    4095741236,\n    2732402419\n  ],\n  "tags": {\n    "addr:city": "Bochum",\n    "addr:housenumber": "186",\n    "addr:postcode": "44879",\n    "addr:street": "Hasenwinkeler Stra\xc3\x9fe",\n    "brand": "Netto Marken-Discount",\n    "brand:wikidata": "Q879858",\n    "brand:wikipedia": "de:Netto Marken-Discount",\n    "building": "retail",\n    "building:levels": "2",\n    "name": "Netto Marken-Discount",\n    "opening_hours": "Mo-Sa 07:00-22:00",\n    "roof:levels": "0",\n    "shop": "supermarket",\n    "website": "https://www.netto-online.de/filialen/Bochum/Hasenwinkler-Str-190/5565/",\n    "wheelchair": "limited"\n  }\n},\n{\n  "type": "way",\n  "id": 122156866,\n  "center": {\n    "lat": 51.5123399,\n    "lon": 7.2569812\n  },\n  "nodes": [\n    2717477397,\n    2717477379,\n    2717477391,\n    2717477324,\n    2717477313,\n    2717477310,\n    2717477320,\n    2717477287,\n    2717477274,\n    2717477273,\n    2717477284,\n    2717477268,\n    2717477230,\n    2717477245,\n    2717477185,\n    1365778092,\n    1365778100,\n    2717477204,\n    2717477200,\n    2717477190,\n    2717477188,\n    2717477253,\n    2717477397\n  ],\n  "tags": {\n    "addr:city": "Bochum",\n    "addr:country": "DE",\n    "addr:housenumber": "450",\n    "addr:postcode": "44805",\n    "addr:street": "Hiltroper Stra\xc3\x9fe",\n    "brand": "REWE",\n    "brand:wikidata": "Q16968817",\n    "brand:wikipedia": "de:Rewe",\n    "building": "supermarket",\n    "check_date": "2023-09-16",\n    "check_date:opening_hours": "2024-06-22",\n    "name": "REWE",\n    "opening_hours": "Mo-Sa 07:00-20:00; PH off",\n    "operator": "Lenk OHG",\n    "shop": "supermarket",\n    "wheelchair": "yes"\n  }\n},\n{\n  "type": "way",\n  "id": 137821352,\n  "center": {\n    "lat": 51.5156347,\n    "lon": 7.2573071\n  },\n  "nodes": [\n    2717180754,\n    10159686052,\n    10159686053,\n    2717180755,\n    2717180756,\n    2717180752,\n    2717180753,\n    2717180741,\n    2717180740,\n    2717180739,\n    2717180738,\n    10159686051,\n    10159686050,\n    2717180749,\n    2717180751,\n    2717180754\n  ],\n  "tags": {\n    "addr:city": "Bochum",\n    "addr:country": "DE",\n    "addr:housenumber": "7",\n    "addr:postcode": "44805",\n    "addr:street": "Wiescherstra\xc3\x9fe",\n    "brand": "PENNY",\n    "brand:wikidata": "Q284688",\n    "brand:wikipedia": "en:Penny (supermarket)",\n    "building": "house",\n    "name": "PENNY",\n    "opening_hours": "Mo-Sa 07:00-21:30",\n    "shop": "supermarket"\n  }\n},\n{\n  "type": "way",\n  "id": 141278169,\n  "center": {\n    "lat": 51.4295284,\n    "lon": 7.1373603\n  },\n  "nodes": [\n    2736365411,\n    9160858954,\n    9160858955,\n    6057414054,\n    6057414053,\n    6057414049,\n    9160858971,\n    9160858970,\n    5240957991,\n    9160858969,\n    9160858968,\n    9160858959,\n    9160858958,\n    2736365257,\n    2736365411\n  ],\n  "tags": {\n    "addr:city": "Bochum",\n    "addr:country": "DE",\n    "addr:housenumber": "182",\n    "addr:postcode": "44879",\n    "addr:street": "Dr.-C.-Otto-Stra\xc3\x9fe",\n    "addr:suburb": "Dahlhausen",\n    "brand": "ALDI Nord",\n    "brand:wikidata": "Q41171373",\n    "brand:wikipedia": "en:Aldi",\n    "building": "retail",\n    "building:levels": "1",\n    "frequency": "50",\n    "generator:method": "photovoltaic",\n    "generator:output:electricity": "60 kW",\n    "generator:solar:tracking": "no",\n    "generator:source": "solar",\n    "generator:type": "solar_photovoltaic_panel",\n    "name": "ALDI Nord",\n    "opening_hours": "Mo-Sa 08:00-21:00",\n    "operator": "ALDI Nord",\n    "operator:wikidata": "Q41171373",\n    "payment:cash": "yes",\n    "payment:cryptocurrencies": "no",\n    "payment:electronic_purses": "no",\n    "payment:girocard": "yes",\n    "payment:mastercard": "no",\n    "power": "generator",\n    "roof:shape": "flat",\n    "shop": "supermarket",\n    "start_date": "2017",\n    "voltage": "400",\n    "website": "https://www.aldi-nord.de/",\n    "wheelchair": "yes"\n  }\n},\n{\n  "type": "way",\n  "id": 146644663,\n  "center": {\n    "lat": 51.4575408,\n    "lon": 7.1744522\n  },\n  "nodes": [\n    8688899190,\n    8688899191,\n    6402480257,\n    1599116666,\n    5809533373,\n    1599116667,\n    1599116659,\n    8447227320,\n    1599116676,\n    1599116672,\n    8447227319,\n    1599116661,\n    1599116670,\n    8688899186,\n    8688899185,\n    1599116674,\n    6258731540,\n    6258731541,\n    1599116684,\n    8688899189,\n    8688899187,\n    8688899188,\n    8688899190\n  ],\n  "tags": {\n    "addr:city": "Bochum",\n    "addr:country": "DE",\n    "addr:housenumber": "9",\n    "addr:postcode": "44869",\n    "addr:street": "Am Thie",\n    "brand": "REWE",\n    "brand:wikidata": "Q16968817",\n    "building": "retail",\n    "name": "REWE Lenk",\n    "opening_hours": "Mo-Sa 07:00-20:00",\n    "roof:shape": "gabled",\n    "shop": "supermarket",\n    "wheelchair": "yes"\n  }\n},\n{\n  "type": "way",\n  "id": 152296132,\n  "center": {\n    "lat": 51.4359279,\n    "lon": 7.1796654\n  },\n  "nodes": [\n    2661274309,\n    2661274182,\n    2661274315,\n    2661274384,\n    2661274309\n  ],\n  "tags": {\n    "addr:city": "Bochum",\n    "addr:country": "DE",\n    "addr:housenumber": "620",\n    "addr:postcode": "44879",\n    "addr:street": "Hattinger Stra\xc3\x9fe",\n    "addr:suburb": "Linden",\n    "brand": "ALDI Nord",\n    "brand:wikidata": "Q41171373",\n    "building": "supermarket",\n    "demolished:building": "retail",\n    "name": "Aldi",\n    "opening_hours": "Mo-Sa 07:00-21:00; Su, PH off",\n    "operator": "ALDI",\n    "payment:cash": "yes",\n    "payment:cryptocurrencies": "no",\n    "payment:electronic_purses": "no",\n    "payment:girocard": "yes",\n    "payment:mastercard": "yes",\n    "shop": "supermarket",\n    "toilets": "no",\n    "wheelchair": "yes"\n  }\n},\n{\n  "type": "way",\n  "id": 156127092,\n  "center": {\n    "lat": 51.5183457,\n    "lon": 7.2811045\n  },\n  "nodes": [\n    2712431790,\n    2712431800,\n    2712431802,\n    2712431801,\n    2712431797,\n    2712431796,\n    2712431789,\n    2712431788,\n    2712431783,\n    2712431782,\n    2712431756,\n    2712431755,\n    2712431753,\n    2712431752,\n    2712431737,\n    2712431736,\n    2712431734,\n    2712431733,\n    2712431714,\n    2712431713,\n    2712431711,\n    2712431710,\n    2712431697,\n    2712431696,\n    2712431689,\n    2712431688,\n    2712431664,\n    2712431663,\n    2712431659,\n    2712431655,\n    2712431637,\n    2712431635,\n    2712431633,\n    2712431632,\n    2712431615,\n    2712431614,\n    2712431613,\n    2712431612,\n    2712431600,\n    2712431599,\n    2712431595,\n    2712431596,\n    2712431570,\n    2712431568,\n    2712431561,\n    2712431563,\n    2712431564,\n    2712431560,\n    2712431591,\n    2712431590,\n    2712431587,\n    2712431588,\n    2712431589,\n    2712431586,\n    2712431583,\n    2712431585,\n    2712431592,\n    2712431593,\n    2712431608,\n    2712431609,\n    2712431610,\n    2712431611,\n    2712431627,\n    2712431628,\n    2712431630,\n    2712431631,\n    2712431647,\n    2712431646,\n    2712431651,\n    2712431649,\n    2712431680,\n    2712431681,\n    2712431685,\n    2712431686,\n    2712431705,\n    2712431706,\n    2712431708,\n    2712431709,\n    2712431728,\n    2712431729,\n    2712431731,\n    2712431732,\n    2712431748,\n    2712431749,\n    2712431750,\n    2712431751,\n    2712431790\n  ],\n  "tags": {\n    "addr:city": "Bochum",\n    "addr:country": "DE",\n    "addr:housenumber": "9",\n    "addr:postcode": "44805",\n    "addr:street": "Amtmann-Ibing-Stra\xc3\x9fe",\n    "brand": "ALDI Nord",\n    "brand:wikidata": "Q41171373",\n    "brand:wikipedia": "en:Aldi",\n    "building": "retail",\n    "building:levels": "1",\n    "building:use": "retail",\n    "check_date": "2024-06-16",\n    "check_date:opening_hours": "2024-06-16",\n    "max_level": "0",\n    "min_level": "0",\n    "name": "ALDI Nord",\n    "opening_hours": "Mo-Sa 07:00-21:00",\n    "roof:material": "roof_tiles",\n    "roof:orientation": "along",\n    "roof:shape": "gabled",\n    "shop": "supermarket",\n    "wheelchair": "yes"\n  }\n},\n{\n  "type": "way",\n  "id": 156127093,\n  "center": {\n    "lat": 51.5182781,\n    "lon": 7.2821039\n  },\n  "nodes": [\n    1684133524,\n    1684133522,\n    1684133518,\n    1684133497,\n    1684133524\n  ],\n  "tags": {\n    "addr:city": "Bochum",\n    "addr:country": "DE",\n    "addr:housenumber": "7",\n    "addr:postcode": "44805",\n    "addr:street": "Amtmann-Ibing-Stra\xc3\x9fe",\n    "brand": "Lidl",\n    "brand:wikidata": "Q151954",\n    "brand:wikipedia": "en:Lidl",\n    "building": "retail",\n    "building:levels": "1",\n    "check_date:opening_hours": "2022-10-21",\n    "max_level": "0",\n    "min_level": "0",\n    "name": "Lidl",\n    "opening_hours": "Mo-Sa 07:00-21:00",\n    "roof:material": "roof_tiles",\n    "roof:orientation": "along",\n    "roof:shape": "gabled",\n    "shop": "supermarket",\n    "wheelchair": "yes"\n  }\n},\n{\n  "type": "way",\n  "id": 161246178,\n  "center": {\n    "lat": 51.4597670,\n    "lon": 7.1429316\n  },\n  "nodes": [\n    6155817145,\n    5559685013,\n    5559685012,\n    1732363250,\n    1814334003,\n    5559685011,\n    5559685010,\n    5559685009,\n    1814334002,\n    3821143032,\n    1814333996,\n    5559685008,\n    1732363275,\n    9155939078,\n    1732363282,\n    1733584735,\n    5559685007,\n    5559685015,\n    5559685014,\n    6175277696,\n    6155817145\n  ],\n  "tags": {\n    "addr:city": "Bochum",\n    "addr:country": "DE",\n    "addr:housenumber": "165",\n    "addr:postcode": "44867",\n    "addr:street": "Wattenscheider Hellweg",\n    "branch": "Mokanski",\n    "brand": "REWE",\n    "brand:wikidata": "Q16968817",\n    "brand:wikipedia": "de:Rewe",\n    "building": "retail",\n    "name": "REWE",\n    "opening_hours": "Mo-Sa 07:00-21:00; Su,PH off",\n    "payment:cash": "yes",\n    "payment:cryptocurrencies": "no",\n    "payment:electronic_purses": "no",\n    "payment:girocard": "yes",\n    "phone": "+49 2327 547981",\n    "shop": "supermarket",\n    "website": "https://www.rewe-mokanski.de",\n    "wheelchair": "yes"\n  }\n},\n{\n  "type": "way",\n  "id": 163927960,\n  "center": {\n    "lat": 51.5192856,\n    "lon": 7.2807952\n  },\n  "nodes": [\n    2712432065,\n    1756585848,\n    1756585975,\n    2712432063,\n    2712431981,\n    2712431962,\n    2712431932,\n    2712431931,\n    2712432021,\n    2712432022,\n    2712432064,\n    2712432065\n  ],\n  "tags": {\n    "addr:city": "Bochum",\n    "addr:country": "DE",\n    "addr:housenumber": "32",\n    "addr:postcode": "44805",\n    "addr:street": "Lothringer Stra\xc3\x9fe",\n    "addr:suburb": "Gerthe",\n    "branch": "Kaeseler",\n    "brand": "REWE",\n    "brand:wikidata": "Q16968817",\n    "brand:wikipedia": "de:Rewe",\n    "building": "retail",\n    "building:levels": "1",\n    "building:use": "retail",\n    "check_date": "2020-02-07",\n    "max_level": "0",\n    "min_level": "0",\n    "name": "REWE",\n    "opening_hours": "Mo-Sa 07:00-22:00",\n    "roof:colour": "white",\n    "roof:shape": "flat",\n    "shop": "supermarket",\n    "wheelchair": "yes"\n  }\n},\n{\n  "type": "way",\n  "id": 171272256,\n  "center": {\n    "lat": 51.4798592,\n    "lon": 7.1657139\n  },\n  "nodes": [\n    3370383971,\n    3370383953,\n    3370383952,\n    3370384027,\n    3370383955,\n    3370383958,\n    3370383848,\n    3370384120,\n    3370383856,\n    3370383857,\n    3370383876,\n    3370383875,\n    3370383883,\n    3370383884,\n    3370383711,\n    3370384519,\n    3370383718,\n    3370383719,\n    3370384619,\n    3370384544,\n    3370384156,\n    3370383352,\n    3370384711,\n    3370383357,\n    3370384718,\n    3370384719,\n    3370384998,\n    3370384996,\n    3370385002,\n    3370385004,\n    3370385341,\n    3370385330,\n    3370385029,\n    3370383775,\n    3370383772,\n    3370385165,\n    3370385168,\n    3370385371,\n    3370385169,\n    3370385387,\n    3370385388,\n    3370385081,\n    3370385390,\n    3370385391,\n    3370385796,\n    3370385799,\n    3370385798,\n    3370383203,\n    3370383204,\n    3370385807,\n    3370385805,\n    3370383216,\n    3370385660,\n    3370385664,\n    3370383210,\n    3370385824,\n    3370385392,\n    3370385793,\n    3370385092,\n    3370385091,\n    3370383773,\n    3370383776,\n    3370385023,\n    3370385022,\n    3370385331,\n    3370385334,\n    3370385327,\n    3370385344,\n    3370384150,\n    3370384627,\n    3370384609,\n    3370384610,\n    3370384552,\n    3370384548,\n    3370384510,\n    3370384511,\n    3370384503,\n    3370384502,\n    3370384398,\n    3370384407,\n    3370383706,\n    3370383701,\n    3370384138,\n    3370384133,\n    3370384136,\n    3370384124,\n    3370383866,\n    3370383862,\n    3370383865,\n    3370384110,\n    3370384106,\n    3370384103,\n    3370384105,\n    3370383979,\n    3370383975,\n    3370383968,\n    3370383971\n  ],\n  "tags": {\n    "addr:city": "Bochum",\n    "addr:country": "DE",\n    "addr:housenumber": "99",\n    "addr:postcode": "44866",\n    "addr:street": "Heidestra\xc3\x9fe",\n    "brand": "Lidl",\n    "brand:wikidata": "Q151954",\n    "brand:wikipedia": "en:Lidl",\n    "building": "yes",\n    "name": "Lidl",\n    "opening_hours": "Mo-Sa 07:00-21:00",\n    "shop": "supermarket",\n    "wheelchair": "yes"\n  }\n},\n{\n  "type": "way",\n  "id": 171290695,\n  "center": {\n    "lat": 51.4810775,\n    "lon": 7.1592927\n  },\n  "nodes": [\n    3370388934,\n    3370388872,\n    3370388930,\n    3370387654,\n    3370387653,\n    3370387649,\n    3370388359,\n    3370388182,\n    3370388181,\n    3370388180,\n    3370388179,\n    3370388176,\n    3370388865,\n    3370388543,\n    3370388934\n  ],\n  "tags": {\n    "addr:city": "Bochum",\n    "addr:country": "DE",\n    "addr:housenumber": "59",\n    "addr:postcode": "44866",\n    "addr:street": "Dickebankstra\xc3\x9fe",\n    "brand": "Aldi",\n    "brand:wikidata": "Q125054",\n    "brand:wikipedia": "de:Aldi",\n    "building": "yes",\n    "name": "Aldi",\n    "opening_hours": "Mo-Sa 07:00-21:00",\n    "shop": "supermarket",\n    "toilets:wheelchair": "no",\n    "wheelchair": "yes"\n  }\n},\n{\n  "type": "way",\n  "id": 174689837,\n  "center": {\n    "lat": 51.4622217,\n    "lon": 7.3056846\n  },\n  "nodes": [\n    875631454,\n    875631338,\n    7247490736,\n    1853407826,\n    875631406,\n    875631417,\n    875631375,\n    7417379556,\n    875631319,\n    880530612,\n    1853407823,\n    875631454\n  ],\n  "tags": {\n    "addr:city": "Bochum",\n    "addr:country": "DE",\n    "addr:housenumber": "5a",\n    "addr:postcode": "44892",\n    "addr:street": "Birkhuhnweg",\n    "brand": "Denns BioMarkt",\n    "brand:wikidata": "Q48883773",\n    "building": "retail",\n    "building:levels": "1",\n    "contact:phone": "+49 234 90200650",\n    "contact:website": "https://www.biomarkt.de/bochum-birkhuhnweg-5-a/marktseite",\n    "disused:website": "http://www.naturkost-artmann.de/",\n    "name": "Denns BioMarkt",\n    "opening_hours": "Mo-Fr 08:00-20:30; Sa 07:30-20:30",\n    "operator": "Dennree GmbH",\n    "operator:wikidata": "Q1189641",\n    "organic": "only",\n    "roof:shape": "flat",\n    "shop": "supermarket",\n    "wheelchair": "yes"\n  }\n},\n{\n  "type": "way",\n  "id": 182443606,\n  "center": {\n    "lat": 51.5201071,\n    "lon": 7.2819778\n  },\n  "nodes": [\n    7340685882,\n    708593277,\n    1927933814,\n    7340685883,\n    7340685882\n  ],\n  "tags": {\n    "addr:city": "Bochum",\n    "addr:country": "DE",\n    "addr:housenumber": "37",\n    "addr:postcode": "44805",\n    "addr:street": "Lothringer Stra\xc3\x9fe",\n    "brand": "Netto Marken-Discount",\n    "brand:wikidata": "Q879858",\n    "brand:wikipedia": "de:Netto Marken-Discount",\n    "building": "yes",\n    "building:levels": "1",\n    "building:use:retail": "yes",\n    "name": "Netto Marken-Discount",\n    "opening_hours": "Mo-Sa 07:00-21:00",\n    "roof:shape": "flat",\n    "shop": "supermarket",\n    "source:outline": "ALKIS NRW",\n    "website": "https://www.netto-online.de/filialen/Bochum/Lothringer-Str-37/6198/",\n    "wheelchair": "yes"\n  }\n},\n{\n  "type": "way",\n  "id": 204713795,\n  "center": {\n    "lat": 51.4749863,\n    "lon": 7.1926025\n  },\n  "nodes": [\n    2935777019,\n    2935777027,\n    2935777024,\n    2935777025,\n    5843702113,\n    2935777021,\n    2935777022,\n    2935777020,\n    2146962763,\n    2935777019\n  ],\n  "tags": {\n    "addr:city": "Bochum",\n    "addr:country": "DE",\n    "addr:housename": "Lidl",\n    "addr:housenumber": "190",\n    "addr:postcode": "44793",\n    "addr:street": "Kohlenstra\xc3\x9fe",\n    "brand": "Lidl",\n    "brand:wikidata": "Q151954",\n    "brand:wikipedia": "en:Lidl",\n    "building": "supermarket",\n    "fair_trade": "yes",\n    "frequency": "50",\n    "generator:method": "photovoltaic",\n    "generator:output:electricity": "yes",\n    "generator:solar:tracking": "no",\n    "generator:source": "solar",\n    "generator:type": "solar_photovoltaic_panel",\n    "name": "Lidl",\n    "opening_hours": "Mo-Sa 08:00-22:00",\n    "payment:cash": "yes",\n    "payment:debit_cards": "yes",\n    "power": "generator",\n    "shop": "supermarket",\n    "voltage": "400",\n    "website": "https://www.lidl.de/filialen/bochum/stahlhausen-kohlenstr-190.html",\n    "wheelchair": "yes"\n  }\n},\n{\n  "type": "way",\n  "id": 205858791,\n  "center": {\n    "lat": 51.4831903,\n    "lon": 7.1070337\n  },\n  "nodes": [\n    2158396675,\n    2158396705,\n    2158396696,\n    2158396702,\n    2158396690,\n    2158396685,\n    2158396615,\n    2158396590,\n    2158396675\n  ],\n  "tags": {\n    "addr:city": "Bochum",\n    "addr:country": "DE",\n    "addr:housenumber": "44",\n    "addr:postcode": "44866",\n    "addr:street": "Krayer Stra\xc3\x9fe",\n    "brand": "ALDI Nord",\n    "brand:wikidata": "Q41171373",\n    "brand:wikipedia": "en:Aldi",\n    "building": "supermarket",\n    "name": "ALDI Nord",\n    "opening_hours": "Mo-Sa 07:00-21:00",\n    "roof:shape": "gabled",\n    "shop": "supermarket",\n    "toilets:wheelchair": "no",\n    "wheelchair": "yes"\n  }\n},\n{\n  "type": "way",\n  "id": 225557710,\n  "center": {\n    "lat": 51.5046700,\n    "lon": 7.2677521\n  },\n  "nodes": [\n    2714622855,\n    2343250438,\n    1169158256,\n    1169158265,\n    1169158239,\n    1169158505,\n    2714622796,\n    2343250428,\n    6987259899,\n    2714622574,\n    2714622567,\n    2714622855\n  ],\n  "tags": {\n    "addr:city": "Bochum",\n    "addr:country": "DE",\n    "addr:housenumber": "4",\n    "addr:postcode": "44805",\n    "addr:street": "Haydnstra\xc3\x9fe",\n    "building": "yes",\n    "name": "Mini Markt",\n    "shop": "supermarket",\n    "toilets:wheelchair": "no",\n    "wheelchair": "yes"\n  }\n},\n{\n  "type": "way",\n  "id": 260174643,\n  "center": {\n    "lat": 51.4412247,\n    "lon": 7.2125639\n  },\n  "nodes": [\n    2656563381,\n    2656563423,\n    2656563549,\n    2656563475,\n    2656563657,\n    2656563662,\n    2656563672,\n    2656563669,\n    2656563732,\n    2656563733,\n    2656563770,\n    2656563749,\n    2656564045,\n    2656564071,\n    2656564113,\n    2656564111,\n    2656564496,\n    2656564508,\n    2656563714,\n    2656563372,\n    2656563050,\n    2656563305,\n    2656563381\n  ],\n  "tags": {\n    "brand": "ALDI Nord",\n    "brand:wikidata": "Q41171373",\n    "brand:wikipedia": "en:Aldi",\n    "building": "yes",\n    "internet_access": "no",\n    "name": "Aldi",\n    "opening_hours": "Mo-Sa 08:00-20:00",\n    "payment:american_express": "yes",\n    "payment:cash": "yes",\n    "payment:ec": "yes",\n    "payment:maestro": "yes",\n    "payment:mastercard": "yes",\n    "payment:v_pay": "yes",\n    "payment:visa": "yes",\n    "shop": "supermarket",\n    "wheelchair": "yes"\n  }\n},\n{\n  "type": "way",\n  "id": 260754456,\n  "center": {\n    "lat": 51.4282865,\n    "lon": 7.1701088\n  },\n  "nodes": [\n    2663156711,\n    2663156712,\n    2663156710,\n    2663156706,\n    2663156707,\n    2663156681,\n    2663156680,\n    2663156675,\n    2663156646,\n    2663156612,\n    2663156623,\n    2663156625,\n    2663156636,\n    2663156631,\n    2663156633,\n    2663156598,\n    2663156597,\n    2663156593,\n    2663156595,\n    2663156573,\n    2663156572,\n    2663156569,\n    2663156570,\n    2663156546,\n    2663156544,\n    2663156541,\n    2663156542,\n    2663156510,\n    2663156509,\n    2663156505,\n    2663156507,\n    2663156412,\n    2663156411,\n    2663156407,\n    2663156408,\n    2663156370,\n    2663156368,\n    2663156366,\n    2663156367,\n    2663156365,\n    2663156383,\n    2663156397,\n    2663156398,\n    8733713694,\n    2663156528,\n    2663156526,\n    2663156532,\n    2663156535,\n    2663156552,\n    2663156577,\n    2663156578,\n    3176401023,\n    2663156605,\n    2663156607,\n    2663156635,\n    2663156632,\n    2663156654,\n    2663156629,\n    2663156667,\n    2663156669,\n    2663156672,\n    2663156671,\n    2663156699,\n    2663156700,\n    2663156703,\n    2663156701,\n    2663156734,\n    2663156735,\n    2663156740,\n    2663156741,\n    2663156828,\n    2663156829,\n    2663156834,\n    2663156832,\n    2663157012,\n    2663157018,\n    2663157063,\n    2663157043,\n    2663157026,\n    2663156711\n  ],\n  "tags": {\n    "addr:city": "Bochum",\n    "addr:country": "DE",\n    "addr:housenumber": "2",\n    "addr:postcode": "44879",\n    "addr:street": "Welperstra\xc3\x9fe",\n    "addr:suburb": "Linden",\n    "brand": "Lidl",\n    "brand:wikidata": "Q151954",\n    "brand:wikipedia": "en:Lidl",\n    "building": "retail",\n    "building:levels": "1",\n    "check_date": "2023-07-11",\n    "name": "Lidl",\n    "opening_hours": "Mo-Sa 07:00-21:00; Su, PH off",\n    "payment:cash": "yes",\n    "payment:girocard": "yes",\n    "roof:levels": "0",\n    "roof:shape": "skillion",\n    "shop": "supermarket",\n    "website": "https://www.lidl.de/",\n    "wheelchair": "yes"\n  }\n},\n{\n  "type": "way",\n  "id": 260895449,\n  "center": {\n    "lat": 51.4583363,\n    "lon": 7.1968853\n  },\n  "nodes": [\n    2664846204,\n    2659158358,\n    5143763505,\n    2659158489,\n    2664846214,\n    6155771340,\n    2664846204\n  ],\n  "tags": {\n    "addr:city": "Bochum",\n    "addr:country": "DE",\n    "addr:housenumber": "264",\n    "addr:postcode": "44795",\n    "addr:street": "Hattinger Stra\xc3\x9fe",\n    "brand": "denn\'s Biomarkt",\n    "brand:wikidata": "Q48883773",\n    "building": "retail",\n    "building:levels": "1",\n    "name": "denn\'s Biomarkt",\n    "opening_hours": "Sa 07:30-20:30; Mo-Fr 08:00-20:30",\n    "organic": "only",\n    "payment:cash": "yes",\n    "payment:girocard": "yes",\n    "phone": "+49 234 53992380",\n    "roof:levels": "0",\n    "roof:shape": "flat",\n    "shop": "supermarket",\n    "website": "https://www.denns-biomarkt.de/bochum-hattinger-str-264/marktseite/",\n    "wheelchair": "yes"\n  }\n},\n{\n  "type": "way",\n  "id": 261059888,\n  "center": {\n    "lat": 51.4512878,\n    "lon": 7.1917408\n  },\n  "nodes": [\n    5517406511,\n    5494493413,\n    3775102524,\n    1034000090,\n    5517406518,\n    3027845428,\n    5517406516,\n    3027845429,\n    5517406508,\n    2666752268,\n    1232449612,\n    1232449672,\n    5517406509,\n    1232449556,\n    6542707220,\n    5517406511\n  ],\n  "tags": {\n    "addr:city": "Bochum",\n    "addr:country": "DE",\n    "addr:housenumber": "338a",\n    "addr:postcode": "44795",\n    "addr:street": "Hattinger Stra\xc3\x9fe",\n    "brand": "Rewe",\n    "brand:wikidata": "Q16968817",\n    "brand:wikipedia": "en:REWE",\n    "building:levels": "1",\n    "building:part": "retail",\n    "check_date": "2022-05-18",\n    "check_date:opening_hours": "2022-12-02",\n    "email": "info@REWE-Feiertag.de",\n    "name": "Rewe",\n    "opening_hours": "Mo-Sa 07:00-21:00",\n    "operator": "J. Feiertag GmbH & Co. KG",\n    "payment:cash": "yes",\n    "payment:cryptocurrencies": "no",\n    "payment:girocard": "yes",\n    "phone": "+49 234 9430290",\n    "roof:shape": "flat",\n    "shop": "supermarket",\n    "website": "https://www.rewe-feiertag.de/",\n    "wheelchair": "yes"\n  }\n},\n{\n  "type": "way",\n  "id": 264805777,\n  "center": {\n    "lat": 51.4955233,\n    "lon": 7.1458201\n  },\n  "nodes": [\n    2704525914,\n    2704525903,\n    2704525106,\n    2704525084,\n    2704525098,\n    2704525202,\n    2704525059,\n    2704525036,\n    2704525048,\n    2704525053,\n    2704525239,\n    2704525235,\n    2704525261,\n    2704525279,\n    2704525274,\n    2704525448,\n    2704526024,\n    2704526027,\n    2704526037,\n    2704526304,\n    2704526432,\n    2704526271,\n    2704526274,\n    2704526626,\n    2704526627,\n    2704526636,\n    2704525914\n  ],\n  "tags": {\n    "addr:city": "Bochum",\n    "addr:country": "DE",\n    "addr:housenumber": "56-58",\n    "addr:postcode": "44866",\n    "addr:street": "G\xc3\xbcnnigfelder Stra\xc3\x9fe",\n    "brand": "ALDI Nord",\n    "brand:wikidata": "Q41171373",\n    "brand:wikipedia": "en:Aldi",\n    "building": "commercial",\n    "name": "ALDI Nord",\n    "opening_hours": "Mo-Sa 07:00-21:00",\n    "shop": "supermarket",\n    "toilets:wheelchair": "no",\n    "wheelchair": "yes"\n  }\n},\n{\n  "type": "way",\n  "id": 264805814,\n  "center": {\n    "lat": 51.4937711,\n    "lon": 7.1445447\n  },\n  "nodes": [\n    2704491790,\n    2704491800,\n    2704490844,\n    2704490828,\n    2704490777,\n    2704490764,\n    2704490255,\n    2704490036,\n    2704490752,\n    2704490776,\n    2704490819,\n    9173190175,\n    2704491806,\n    2704491790\n  ],\n  "tags": {\n    "addr:city": "Bochum",\n    "addr:country": "DE",\n    "addr:housenumber": "57a",\n    "addr:postcode": "44866",\n    "addr:street": "G\xc3\xbcnnigfelder Stra\xc3\x9fe",\n    "brand": "Netto Marken-Discount",\n    "brand:wikidata": "Q879858",\n    "brand:wikipedia": "de:Netto Marken-Discount",\n    "building": "commercial",\n    "name": "Netto Marken-Discount",\n    "opening_hours": "Mo-Sa 07:00-21:00",\n    "shop": "supermarket",\n    "toilets:wheelchair": "no",\n    "website": "https://www.netto-online.de/filialen/Bochum/Guennigfelder-Str-57-a/6115/",\n    "wheelchair": "yes"\n  }\n},\n{\n  "type": "way",\n  "id": 329183043,\n  "center": {\n    "lat": 51.4836105,\n    "lon": 7.1478945\n  },\n  "nodes": [\n    3370115255,\n    3370115256,\n    3370115254,\n    3370115080,\n    3370115081,\n    3370114986,\n    3370114985,\n    3370114984,\n    3370114982,\n    3370115229,\n    3370115228,\n    3370115399,\n    3370115224,\n    3370115307,\n    3370115306,\n    3370115300,\n    3370115301,\n    3370115207,\n    3370115206,\n    3370114164,\n    3370114163,\n    3370115029,\n    3370115028,\n    3370114857,\n    3370115025,\n    3370114850,\n    3370114587,\n    3370114589,\n    3370114586,\n    3370114841,\n    3370114840,\n    3667077664,\n    3370114563,\n    3370114561,\n    3370114554,\n    3370114555,\n    3370114557,\n    3370115097,\n    3370112887,\n    3370112886,\n    3370114378,\n    3370114381,\n    3370114383,\n    3370114562,\n    3370115094,\n    3370115093,\n    3370114963,\n    3370114965,\n    3370114385,\n    3370115002,\n    3370115001,\n    3370115003,\n    3370114559,\n    3370114558,\n    3370115536,\n    3370115275,\n    3370115602,\n    3370115276,\n    3370115091,\n    3370115255\n  ],\n  "tags": {\n    "addr:city": "Bochum",\n    "addr:country": "DE",\n    "addr:housenumber": "41",\n    "addr:postcode": "44866",\n    "addr:street": "Hansastra\xc3\x9fe",\n    "addr:suburb": "Wattenscheid",\n    "brand": "ALDI Nord",\n    "brand:wikidata": "Q41171373",\n    "brand:wikipedia": "en:Aldi",\n    "building": "yes",\n    "name": "ALDI Nord",\n    "shop": "supermarket",\n    "wheelchair": "yes"\n  }\n},\n{\n  "type": "way",\n  "id": 381005103,\n  "center": {\n    "lat": 51.4537510,\n    "lon": 7.2479160\n  },\n  "nodes": [\n    3842942461,\n    3842942043,\n    3842942036,\n    3842942056,\n    3842942055,\n    3842942457,\n    3842942458,\n    3842942459,\n    4344887394,\n    3842942460,\n    3842942461\n  ],\n  "tags": {\n    "addr:city": "Bochum",\n    "addr:housenumber": "139",\n    "addr:postcode": "44803",\n    "addr:street": "Markstra\xc3\x9fe",\n    "air_conditioning": "yes",\n    "brand": "Aldi",\n    "brand:wikidata": "Q125054",\n    "brand:wikipedia": "en:Aldi",\n    "building": "retail",\n    "building:levels": "1",\n    "check_date": "2022-06-26",\n    "name": "ALDI",\n    "opening_hours": "Mo-Sa 08:00-22:00",\n    "payment:apple_pay": "yes",\n    "payment:cash": "yes",\n    "payment:contactless": "yes",\n    "payment:credit_cards": "yes",\n    "payment:girocard": "yes",\n    "payment:google_pay": "yes",\n    "payment:mastercard": "yes",\n    "payment:visa": "yes",\n    "roof:shape": "flat",\n    "shop": "supermarket",\n    "website": "https://www.aldi-nord.de/",\n    "wheelchair": "yes"\n  }\n},\n{\n  "type": "way",\n  "id": 381202144,\n  "center": {\n    "lat": 51.4753898,\n    "lon": 7.2717975\n  },\n  "nodes": [\n    3844402859,\n    3844402752,\n    3844402743,\n    11624473676,\n    3844402736,\n    3844402724,\n    3844402728,\n    3844402734,\n    3844402733,\n    7188423252,\n    3844402747,\n    7188423250,\n    3844402755,\n    3844402756,\n    3844402857,\n    3844402863,\n    3844402860,\n    3844402859\n  ],\n  "tags": {\n    "addr:city": "Bochum",\n    "addr:country": "DE",\n    "addr:housenumber": "1",\n    "addr:postcode": "44803",\n    "addr:street": "Sudbeckenpfad",\n    "brand": "Lidl",\n    "brand:wikidata": "Q151954",\n    "brand:wikipedia": "en:Lidl",\n    "building": "retail",\n    "building:levels": "1",\n    "name": "Lidl",\n    "opening_hours": "Mo-Sa 08:00-21:00",\n    "roof:shape": "gabled",\n    "shop": "supermarket",\n    "wheelchair": "yes"\n  }\n},\n{\n  "type": "way",\n  "id": 389598816,\n  "center": {\n    "lat": 51.4823286,\n    "lon": 7.1284671\n  },\n  "nodes": [\n    3927670134,\n    3927670127,\n    3927670128,\n    3927670126,\n    3927670129,\n    3927670139,\n    3927670138,\n    3927670137,\n    3927670136,\n    3927670135,\n    3927670134\n  ],\n  "tags": {\n    "addr:city": "Bochum",\n    "addr:country": "DE",\n    "addr:housenumber": "9",\n    "addr:postcode": "44866",\n    "addr:street": "Lyrenstra\xc3\x9fe",\n    "brand": "Lidl",\n    "brand:wikidata": "Q151954",\n    "brand:wikipedia": "en:Lidl",\n    "building": "supermarket",\n    "check_date:opening_hours": "2023-10-19",\n    "name": "Lidl",\n    "opening_hours": "Mo-Sa 07:00-21:00",\n    "shop": "supermarket",\n    "source": "NRW ALKIS",\n    "toilets:wheelchair": "no",\n    "wheelchair": "yes"\n  }\n},\n{\n  "type": "way",\n  "id": 525560011,\n  "center": {\n    "lat": 51.4947904,\n    "lon": 7.3344324\n  },\n  "nodes": [\n    5112551641,\n    5112551640,\n    5112551639,\n    5112551638,\n    5112551641\n  ],\n  "tags": {\n    "addr:city": "Bochum",\n    "addr:country": "DE",\n    "addr:housenumber": "206",\n    "addr:postcode": "44894",\n    "addr:street": "L\xc3\xbctgendortmunder Hellweg",\n    "brand": "ALDI Nord",\n    "brand:wikidata": "Q41171373",\n    "brand:wikipedia": "en:Aldi",\n    "building": "yes",\n    "check_date": "2017-09-15",\n    "name": "ALDI Nord",\n    "opening_hours": "Mo-Sa 08:00-21:00",\n    "operator": "ALDI GmbH & Co. Kommanditgesellschaft Datteln",\n    "shop": "supermarket",\n    "source": "survey"\n  }\n},\n{\n  "type": "way",\n  "id": 571085006,\n  "center": {\n    "lat": 51.4594120,\n    "lon": 7.1574615\n  },\n  "nodes": [\n    5489487161,\n    5489487160,\n    5489487159,\n    5489487154,\n    5489487157,\n    6402480240,\n    6402480239,\n    5489487156,\n    5489487153,\n    5489487152,\n    5489487151,\n    5489487158,\n    5590073651,\n    5489487161\n  ],\n  "tags": {\n    "addr:city": "Bochum",\n    "addr:country": "DE",\n    "addr:housenumber": "67",\n    "addr:postcode": "44869",\n    "addr:street": "H\xc3\xb6ntroper Stra\xc3\x9fe",\n    "addr:suburb": "H\xc3\xb6ntrop",\n    "brand": "ALDI Nord",\n    "brand:wikidata": "Q41171373",\n    "brand:wikipedia": "en:Aldi",\n    "building": "supermarket",\n    "building:levels": "1",\n    "check_date:opening_hours": "2021-05-23",\n    "name": "ALDI Nord",\n    "opening_hours": "Mo-Sa 07:00-21:00; Su, PH off",\n    "operator": "ALDI Nord",\n    "payment:cash": "yes",\n    "payment:girocard": "yes",\n    "shop": "supermarket",\n    "wheelchair": "yes"\n  }\n},\n{\n  "type": "way",\n  "id": 686876399,\n  "center": {\n    "lat": 51.4428846,\n    "lon": 7.1937814\n  },\n  "nodes": [\n    2660107270,\n    2660107276,\n    2660107274,\n    2660107277,\n    2660107282,\n    2660107280,\n    2660107309,\n    2660107310,\n    2660107316,\n    2660107315,\n    2660107325,\n    2660107327,\n    2660107331,\n    2660107329,\n    2660107346,\n    2660107347,\n    2660107350,\n    2660107349,\n    2660107367,\n    2660107368,\n    2660107372,\n    2660107371,\n    2660107384,\n    2660107385,\n    2660107390,\n    2660107389,\n    2660107405,\n    2660107406,\n    2660107409,\n    2660107408,\n    2660107426,\n    2660107427,\n    2660107430,\n    2660107429,\n    2660107437,\n    2660107447,\n    2660107435,\n    2660107449,\n    1726723998,\n    2660107442,\n    2660107432,\n    2660107424,\n    2660107413,\n    2660107404,\n    2660107403,\n    2660107400,\n    2660107401,\n    2660107383,\n    2660107381,\n    2660107377,\n    2660107378,\n    2660107364,\n    2660107363,\n    2660107358,\n    2660107360,\n    2660107343,\n    2660107342,\n    2660107338,\n    2660107339,\n    2660107324,\n    2660107323,\n    2660107320,\n    2660107321,\n    2660107305,\n    2660107301,\n    2660107293,\n    2660107295,\n    2660107268,\n    2660107267,\n    2660107263,\n    2660107264,\n    2660107246,\n    2660107244,\n    2660107235,\n    2660107239,\n    2660107177,\n    2660107180,\n    2660107170,\n    2660107183,\n    2660107270\n  ],\n  "tags": {\n    "addr:city": "Bochum",\n    "addr:country": "DE",\n    "addr:hamlet": "Weitmar",\n    "addr:housenumber": "453",\n    "addr:postcode": "44795",\n    "addr:street": "Hattinger Stra\xc3\x9fe",\n    "brand": "EDEKA",\n    "brand:wikidata": "Q701755",\n    "brand:wikipedia": "de:Edeka",\n    "building": "supermarket",\n    "building:levels": "1",\n    "fax": "+49 234 9471860",\n    "name": "EDEKA Kant",\n    "opening_hours": "Mo-Sa 07:00-21:00",\n    "payment:cash": "yes",\n    "payment:girocard": "yes",\n    "phone": "+49 234 9471864",\n    "roof:shape": "flat",\n    "shop": "supermarket",\n    "wheelchair": "yes"\n  }\n},\n{\n  "type": "way",\n  "id": 762856883,\n  "center": {\n    "lat": 51.5130197,\n    "lon": 7.2116472\n  },\n  "nodes": [\n    2700441472,\n    2700441480,\n    12339814045,\n    2700441422,\n    2700441414,\n    2700441387,\n    2700441393,\n    2700441234,\n    2700441233,\n    2700441207,\n    2700441160,\n    2700441175,\n    6049950886,\n    2700441117,\n    2700441134,\n    2700441400,\n    2700441472\n  ],\n  "tags": {\n    "addr:city": "Bochum",\n    "addr:country": "DE",\n    "addr:floor": "G",\n    "addr:housenumber": "406",\n    "addr:postcode": "44807",\n    "addr:street": "Herner Stra\xc3\x9fe",\n    "brand": "Netto Marken-Discount",\n    "brand:wikidata": "Q879858",\n    "brand:wikipedia": "de:Netto Marken-Discount",\n    "building": "retail",\n    "building:levels": "1",\n    "check_date": "2024-03-21",\n    "internet_access": "wlan",\n    "internet_access:fee": "no",\n    "level": "0",\n    "name": "Netto Marken-Discount",\n    "opening_hours": "Mo-Sa 07:00-22:00",\n    "payment:cash": "yes",\n    "payment:credit_cards": "yes",\n    "payment:debit_cards": "yes",\n    "phone": "+49 800 2000015",\n    "roof:levels": "0",\n    "shop": "supermarket",\n    "website": "https://www.netto-online.de/filialen/Bochum/Herner-Str-406/5243/",\n    "wheelchair": "limited"\n  }\n},\n{\n  "type": "way",\n  "id": 797246323,\n  "center": {\n    "lat": 51.4803960,\n    "lon": 7.1405885\n  },\n  "nodes": [\n    3369121382,\n    3369121745,\n    3369121387,\n    4806066763,\n    3369121957,\n    3369121768,\n    3369121376,\n    3369121774,\n    3369121767,\n    3369121208,\n    3369120688,\n    3369120543,\n    3369119238,\n    8694950521,\n    8694950520,\n    8694950518,\n    8694950519,\n    3369119873,\n    3369121228,\n    3369121237,\n    3369121819,\n    3369121810,\n    3369121382\n  ],\n  "tags": {\n    "addr:city": "Bochum",\n    "addr:housenumber": "23",\n    "addr:postcode": "44866",\n    "addr:street": "Hochstra\xc3\x9fe",\n    "branch": "Mokanski",\n    "brand": "REWE",\n    "brand:wikidata": "Q16968817",\n    "brand:wikipedia": "de:Rewe",\n    "building": "retail",\n    "name": "REWE",\n    "opening_hours": "Mo-Sa 07:00-21:00",\n    "shop": "supermarket",\n    "wheelchair": "yes"\n  }\n},\n{\n  "type": "way",\n  "id": 943447228,\n  "center": {\n    "lat": 51.4931341,\n    "lon": 7.1438995\n  },\n  "nodes": [\n    8735547681,\n    8735547680,\n    8735547679,\n    8735547678,\n    8735547677,\n    8735547676,\n    8735547675,\n    5726631259,\n    8735547674,\n    3713071312,\n    8735547682,\n    8735547681\n  ],\n  "tags": {\n    "addr:city": "Bochum",\n    "addr:housenumber": "39b",\n    "addr:postcode": "44866",\n    "addr:street": "G\xc3\xbcnnigfelder Stra\xc3\x9fe",\n    "brand": "Lidl",\n    "brand:wikidata": "Q151954",\n    "brand:wikipedia": "en:Lidl",\n    "building": "retail",\n    "name": "Lidl",\n    "opening_hours": "Mo-Sa 07:00-21:00",\n    "shop": "supermarket",\n    "toilets:wheelchair": "yes",\n    "wheelchair": "yes"\n  }\n},\n{\n  "type": "way",\n  "id": 998249855,\n  "center": {\n    "lat": 51.4931516,\n    "lon": 7.3093343\n  },\n  "nodes": [\n    9217152209,\n    9217152207,\n    10776404584,\n    10776404569,\n    9217152211,\n    9217152208,\n    10776404583,\n    9217152209\n  ],\n  "tags": {\n    "brand": "ALDI Nord",\n    "brand:wikidata": "Q41171373",\n    "brand:wikipedia": "en:Aldi",\n    "building:part": "retail",\n    "name": "ALDI",\n    "shop": "supermarket"\n  }\n},\n{\n  "type": "way",\n  "id": 1018221021,\n  "center": {\n    "lat": 51.5164221,\n    "lon": 7.2575306\n  },\n  "nodes": [\n    9391585957,\n    12753651215,\n    9211040159,\n    9391585958,\n    12753651217,\n    12753651216,\n    9391585959,\n    9391585960,\n    9391585957\n  ],\n  "tags": {\n    "addr:city": "Bochum",\n    "addr:country": "DE",\n    "addr:housenumber": "6",\n    "addr:postcode": "44805",\n    "addr:street": "Wiescherstra\xc3\x9fe",\n    "amenity": "parking",\n    "brand": "Lidl",\n    "brand:wikidata": "Q151954",\n    "brand:wikipedia": "en:Lidl",\n    "building": "retail",\n    "name": "Lidl",\n    "opening_hours": "Mo-Sa 07:00-21:00",\n    "parking": "underground",\n    "shop": "supermarket",\n    "source:outline": "ALKIS NRW"\n  }\n},\n{\n  "type": "way",\n  "id": 1259813815,\n  "center": {\n    "lat": 51.5004192,\n    "lon": 7.2818620\n  },\n  "nodes": [\n    2705458269,\n    2705458077,\n    2705458280,\n    2705457976,\n    11712229343,\n    2705458302,\n    2705458296,\n    11712229324,\n    6403013773,\n    6403013772,\n    6403013771,\n    6403013770,\n    6403013769,\n    2705458639,\n    2705458596,\n    2705458467,\n    2705458315,\n    2705458269\n  ],\n  "tags": {\n    "addr:city": "Bochum",\n    "addr:country": "DE",\n    "addr:housenumber": "137",\n    "addr:postcode": "44805",\n    "addr:street": "Harpener Hellweg",\n    "brand": "Mix Markt",\n    "brand:wikidata": "Q327854",\n    "brand:wikipedia": "de:Mix Markt",\n    "contact:email": "mixmarkt48@monolith-gruppe.com",\n    "contact:website": "http://www.mixmarkt.eu/de/germany/",\n    "level": "0",\n    "name": "Mix Markt",\n    "opening_hours": "Mo-Fr 09:00-19:00; Sa 09:00-16:00",\n    "shop": "supermarket"\n  }\n},\n{\n  "type": "way",\n  "id": 1352344290,\n  "center": {\n    "lat": 51.4639560,\n    "lon": 7.1525726\n  },\n  "nodes": [\n    2745730328,\n    1606988672,\n    3792475330,\n    2745730334,\n    2745730332,\n    2745730337,\n    2745730340,\n    2745730342,\n    2745730345,\n    3917159484,\n    2745730355,\n    2745730406,\n    2745730461,\n    12512368874,\n    2745730572,\n    2745730579,\n    2745730532,\n    2745730549,\n    2745730493,\n    2745730485,\n    2745730395,\n    2745730389,\n    3917159486,\n    2745730359,\n    2745730348,\n    2745730336,\n    2745730339,\n    2745730329,\n    2745730331,\n    2745730328\n  ],\n  "tags": {\n    "check_date": "2024-11-24",\n    "check_date:opening_hours": "2022-01-12",\n    "dog": "no",\n    "name": "denn\'s Bio-Supermarkt",\n    "opening_hours": "Mo-Sa 08:00-20:00",\n    "operator": "denn\'s Biomarkt GmbH",\n    "payment:american_express": "yes",\n    "payment:cash": "yes",\n    "payment:girocard": "yes",\n    "payment:mastercard": "yes",\n    "payment:visa": "yes",\n    "shop": "supermarket",\n    "surveillance": "indoor",\n    "surveillance:type": "camera",\n    "surveillance:zone": "shop",\n    "toilets:wheelchair": "no",\n    "website": "https://www.denns-biomarkt.de/39845_Bochum.html",\n    "wheelchair": "yes"\n  }\n}\n\n  ]\n}\n', '_content_consumed': True, '_next': None, 'status_code': 200, 'headers': {'Date': 'Mon, 02 Jun 2025 07:24:22 GMT', 'Server': 'Apache/2.4.62 (Debian)', 'Vary': 'Accept-Encoding', 'Content-Encoding': 'gzip', 'Content-Length': '14674', 'Keep-Alive': 'timeout=5, max=100', 'Connection': 'Keep-Alive', 'Content-Type': 'application/json'}, 'raw': <urllib3.response.HTTPResponse object at 0x1002faef0>, 'url': 'https://overpass-api.de/api/interpreter', 'encoding': 'utf-8', 'history': [], 'reason': 'OK', 'cookies': <RequestsCookieJar[]>, 'elapsed': datetime.timedelta(seconds=151, microseconds=165346), 'request': <PreparedRequest [POST]>, 'connection': <requests.adapters.HTTPAdapter object at 0x1019baa50>}
